{
  "type": "FeatureCollection",
  "features": [
    {
      "type": "Feature",
      "geometry": {
        "type": "Point",
        "coordinates": [
          51.5148,
          35.75
        ]
      },
      "properties": {
        "title": "Fighting / clashes \u2014 Tehran, Tehran, Iran",
        "date": "20260726",
        "score": 2.949,
        "mentions": 399,
        "actors": "A US, AHVAZ, AMERICAN, ATHENS, BAHRAIN, BRITAIN, DJIBOUTI, GOVERNMENT",
        "headline": null,
        "synopsis": "A US and AHVAZ \u2014 fighting / clashes (in conflict) reported near Tehran, Tehran, Iran, covered by 112 source(s) across 399 mentions.",
        "sources": [
          "http://www.thegazette.com/news/world/iran-backed-houthis-fire-missiles-at-saudi-arabia-in-response-to-airstrikes-in-yemen/article_02d32a6f-8cf9-5165-96e5-f67646326499.html",
          "https://www.benzinga.com/markets/commodities/26/07/60685992/us-pauses-iran-strikes-again-as-blockade-tightens-brent-crude-near-97",
          "https://www.egyptindependent.com/catch-up-us-iran-strikes-appear-to-pause-but-another-front-escalates/"
        ]
      }
    },
    {
      "type": "Feature",
      "geometry": {
        "type": "Point",
        "coordinates": [
          1.16667,
          51.7833
        ]
      },
      "properties": {
        "title": "Aid \u2014 Clacton, Essex, United Kingdom",
        "date": "20260726",
        "score": 2.737,
        "mentions": 329,
        "actors": "BRITAIN, BUSINESS, CRIMINAL, UNITED KINGDOM",
        "headline": "Met probes Reform UK donations by Richard Tice-controlled company",
        "synopsis": "BRITAIN and BUSINESS \u2014 aid (engaging in cooperation) reported near Clacton, Essex, United Kingdom, covered by 49 source(s) across 329 mentions.",
        "sources": [
          "https://www.halesowennews.co.uk/news/national/26410109.met-probes-reform-uk-donations-richard-tice-controlled-company/"
        ]
      }
    },
    {
      "type": "Feature",
      "geometry": {
        "type": "Point",
        "coordinates": [
          -3.68333,
          40.4
        ]
      },
      "properties": {
        "title": "Fighting / clashes \u2014 Madrid, Madrid, Spain",
        "date": "20260726",
        "score": 2.948,
        "mentions": 398,
        "actors": "EUROPE, FIREFIGHTER, FRANCE, FRENCH, GREECE, MADRID, MILITARY, PRIME MINISTER",
        "headline": "Fires threaten Bordeaux as France, Spain battle blazes",
        "synopsis": "EUROPE and FIREFIGHTER \u2014 fighting / clashes (in conflict) reported near Madrid, Madrid, Spain, covered by 112 source(s) across 398 mentions.",
        "sources": [
          "https://www.dailyliberal.com.au/story/9317518/fires-threaten-bordeaux-as-france-spain-battle-blazes/",
          "https://www.whtimes.co.uk/news/national/26410171.wildfires-drive-250-000-people-homes-edge-towards-wine-city-bordeaux/",
          "https://www.thisisoxfordshire.co.uk/news/national/26410171.wildfire-forces-another-55-000-people-evacuate-southwest-france/"
        ]
      }
    },
    {
      "type": "Feature",
      "geometry": {
        "type": "Point",
        "coordinates": [
          77.2167,
          28.6667
        ]
      },
      "properties": {
        "title": "Diplomatic cooperation \u2014 Delhi, Delhi, India",
        "date": "20260726",
        "score": 2.708,
        "mentions": 294,
        "actors": "ACTIVIST, ARMED FORCES, AUTHORITIES, BERLIN, BUDDHIST MONK, BUSINESS, CHENNAI, CHIEF JUSTICE",
        "headline": "Calm returns to Jantar Mantar after 36-day NEET protest ends; Dipke, Wangchuk recuperate",
        "synopsis": "ACTIVIST and ARMED FORCES \u2014 diplomatic cooperation (engaging in cooperation) reported near Delhi, Delhi, India, covered by 52 source(s) across 294 mentions.",
        "sources": [
          "https://www.thehindu.com/news/cities/Delhi/calm-returns-to-jantar-mantar-after-36-day-neet-protest-ends-dipke-wangchuk-recuperate/article71269291.ece",
          "https://www.gdnonline.com:443/Details/1401657/India%E2%80%99s-student-led-protest-ends-after-minister-resigns",
          "https://www.heraldgoa.in/goa/goa-celebrates-neet-win/483113/"
        ]
      }
    },
    {
      "type": "Feature",
      "geometry": {
        "type": "Point",
        "coordinates": [
          -0.45,
          39.4833
        ]
      },
      "properties": {
        "title": "Fighting / clashes \u2014 Manises, Valenciana, Spain",
        "date": "20260726",
        "score": 2.94,
        "mentions": 466,
        "actors": "EUROPE, FIREFIGHTER, FRANCE, INTERIOR MINIST, SPAIN",
        "headline": "Wildfires drive 250,000 people from homes and edge towards wine city of Bordeaux",
        "synopsis": "EUROPE and FIREFIGHTER \u2014 fighting / clashes (in conflict) reported near Manises, Valenciana, Spain, covered by 78 source(s) across 466 mentions.",
        "sources": [
          "https://www.thetelegraphandargus.co.uk/news/national/26410171.wildfires-drive-250-000-people-homes-edge-towards-wine-city-bordeaux/",
          "https://www.koreaherald.com/article/10820362",
          "https://www.joplinglobe.com/region/national_business/france-and-spain-battle-wildfires-as-more-than-250-000-people-are-forced-to-flee/article_74a4d0f7-39ff-573c-86f2-3aaad56126a8.html"
        ]
      }
    },
    {
      "type": "Feature",
      "geometry": {
        "type": "Point",
        "coordinates": [
          77.2,
          28.6
        ]
      },
      "properties": {
        "title": "Diplomatic cooperation \u2014 New Delhi, Delhi, India",
        "date": "20260726",
        "score": 2.694,
        "mentions": 297,
        "actors": "ACTOR, ARMED FORCES, ARMY, AUSTRALIA, BHARAT, CHINESE, CITIZEN, CIVILIAN",
        "headline": "India's drone moment has arrived",
        "synopsis": "ACTOR and ARMED FORCES \u2014 diplomatic cooperation (engaging in cooperation) reported near New Delhi, Delhi, India, covered by 47 source(s) across 297 mentions.",
        "sources": [
          "http://www.bignewsnetwork.com/news/279210778/india-drone-moment-has-arrived",
          "https://www.prokerala.com/news/articles/a1792521.html",
          "https://www.newstalkzb.co.nz/news/world/india-s-education-minister-resigns-after-countrywide-protests/"
        ]
      }
    },
    {
      "type": "Feature",
      "geometry": {
        "type": "Point",
        "coordinates": [
          34.3333,
          31.4167
        ]
      },
      "properties": {
        "title": "Fighting / clashes \u2014 Gaza, Israel (general), Israel",
        "date": "20260726",
        "score": 2.797,
        "mentions": 304,
        "actors": "AMIT, BRIGADIER GENERAL, CAIRO, CIVILIAN, COLOMBIA, COMMANDER, DJIBOUTI, EGYPT",
        "headline": "Israel Says It Killed Two Hamas Commanders and Intelligence Operative in Gaza",
        "synopsis": "AMIT and BRIGADIER GENERAL \u2014 fighting / clashes (in conflict) reported near Gaza, Israel (general), Israel, covered by 81 source(s) across 304 mentions.",
        "sources": [
          "https://www.khaama.com/israel-says-it-killed-two-hamas-commanders-and-intelligence-operative-in-gaza/",
          "https://www.zerohedge.com/geopolitical/united-nations-has-run-out-alibis",
          "https://www.dailyrecord.co.uk/news/scottish-news/scots-pro-gaza-campaigns-bank-37476423"
        ]
      }
    },
    {
      "type": "Feature",
      "geometry": {
        "type": "Point",
        "coordinates": [
          -77.0364,
          38.8951
        ]
      },
      "properties": {
        "title": "Appeal \u2014 Washington, District of Columbia, United States",
        "date": "20260726",
        "score": 2.694,
        "mentions": 244,
        "actors": "ADMINISTRATION, AFRICA, AMBASSADOR, AMERICAN, APPEALS COURT, ARKANSAS, BANGLADESH, BLOG",
        "headline": null,
        "synopsis": "ADMINISTRATION and AFRICA \u2014 appeal (engaging in cooperation) reported near Washington, District of Columbia, United States, covered by 70 source(s) across 244 mentions.",
        "sources": [
          "https://aa.com.tr/en/middle-east/qatar-fully-resumes-maritime-navigation-activities-after-2-week-pause/4009508",
          "https://english.aawsat.com/features/5300094-how-us-ground-operation-iran-could-unfold",
          "https://www.benzinga.com/news/politics/26/07/60685492/trumps-election-integrity-push-faces-new-setback-as-appeals-court-blocks-voting-order-says-president-lacks-power-to-intimidate-local-election-officials"
        ]
      }
    },
    {
      "type": "Feature",
      "geometry": {
        "type": "Point",
        "coordinates": [
          -0.089244,
          44.584
        ]
      },
      "properties": {
        "title": "Fighting / clashes \u2014 Gironde, Aquitaine, France",
        "date": "20260726",
        "score": 2.757,
        "mentions": 286,
        "actors": "EUROPE, FIREFIGHTER, FRANCE, FRENCH, GERMANY, MILITARY, MINIST, ROMANIA",
        "headline": "Wildfires drive 250,000 people from homes and edge towards wine city of Bordeaux",
        "synopsis": "EUROPE and FIREFIGHTER \u2014 fighting / clashes (in conflict) reported near Gironde, Aquitaine, France, covered by 73 source(s) across 286 mentions.",
        "sources": [
          "https://www.whtimes.co.uk/news/national/26410171.wildfires-drive-250-000-people-homes-edge-towards-wine-city-bordeaux/",
          "https://www.durangoherald.com/articles/associated-press/wildfire-forces-another-55000-people-to-evacuate-in-southwest-france/",
          "https://www.arkansasonline.com/news/2026/jul/26/france-spain-fight-on-against-wildfires/"
        ]
      }
    },
    {
      "type": "Feature",
      "geometry": {
        "type": "Point",
        "coordinates": [
          34.3333,
          31.4167
        ]
      },
      "properties": {
        "title": "Diplomatic cooperation \u2014 Gaza, Israel (general), Israel",
        "date": "20260726",
        "score": 2.662,
        "mentions": 218,
        "actors": "ACTOR, BAHRAIN, BRITAIN, CONGRESSWOMAN, CROWN PRINCE, DAVOS, DELEGATE, FOREIGN AFFAIRS MINIST",
        "headline": "Labor Israel policy: Bad blood simmers within Labor after national conference",
        "synopsis": "ACTOR and BAHRAIN \u2014 diplomatic cooperation (engaging in cooperation) reported near Gaza, Israel (general), Israel, covered by 73 source(s) across 218 mentions.",
        "sources": [
          "https://www.theage.com.au/politics/federal/ulterior-motives-bad-blood-simmers-within-labor-over-israel-policy-20260726-p60inp.html",
          "https://www.zerohedge.com/geopolitical/united-nations-has-run-out-alibis",
          "https://www.naturalnews.com/2026-07-25-israeli-army-builds-ground-barrier-beyond-yellow-line.html"
        ]
      }
    },
    {
      "type": "Feature",
      "geometry": {
        "type": "Point",
        "coordinates": [
          30.5167,
          50.4333
        ]
      },
      "properties": {
        "title": "Fighting / clashes \u2014 Kyiv, Kyyiv, Misto, Ukraine",
        "date": "20260726",
        "score": 2.723,
        "mentions": 263,
        "actors": "ATHENS, AUTHORITIES, BELARUS, CARGO VESSEL, CIVILIAN, EUROPE, FIGHTER JET, FIREFIGHTER",
        "headline": "Iran accuses Ukraine of deadly attack on Caspian commercial vessel",
        "synopsis": "ATHENS and AUTHORITIES \u2014 fighting / clashes (in conflict) reported near Kyiv, Kyyiv, Misto, Ukraine, covered by 71 source(s) across 263 mentions.",
        "sources": [
          "https://www.aljazeera.com/news/2026/7/25/iran-accuses-ukraine-of-deadly-attack-on-caspian-commercial-vessel",
          "https://www.queanbeyanage.com.au/story/9317510/russia-and-ukraine-report-civilians-killed-in-strikes/",
          "https://www.newstribune.com/news/2026/jul/26/ukraine-drone-sparks-fire-at-tyumen-oil-refinery/"
        ]
      }
    },
    {
      "type": "Feature",
      "geometry": {
        "type": "Point",
        "coordinates": [
          -77.0364,
          38.8951
        ]
      },
      "properties": {
        "title": "Diplomatic cooperation \u2014 Washington, District of Columbia, United States",
        "date": "20260726",
        "score": 2.645,
        "mentions": 214,
        "actors": "ADVOCATE, AMERICAN, BRAZIL, BRAZILIAN, CHINA, CHRISTIAN, CITIZEN, CIVILIAN",
        "headline": "$100,000 Donation Expands Grants for Veterans Starting Farming Businesses",
        "synopsis": "ADVOCATE and AMERICAN \u2014 diplomatic cooperation (engaging in cooperation) reported near Washington, District of Columbia, United States, covered by 69 source(s) across 214 mentions.",
        "sources": [
          "https://www.military.com/100k-dontation-expands-grants-for-veterans-starting-farming-businesses",
          "https://www.latintimes.com/cargo-hope-first-air-shipment-100m-us-aid-package-departs-miami-cuba-598323",
          "https://legalinsurrection.com/2026/07/can-the-smithsonian-be-saved-restoring-the-institutions-founding-mission/"
        ]
      }
    },
    {
      "type": "Feature",
      "geometry": {
        "type": "Point",
        "coordinates": [
          -4.40072,
          40.3633
        ]
      },
      "properties": {
        "title": "Fighting / clashes \u2014 San Martin De Valdeiglesias, Madrid, Spain",
        "date": "20260726",
        "score": 2.718,
        "mentions": 217,
        "actors": "EUROPE, FIREFIGHTER, FRANCE, MILITARY, SPAIN",
        "headline": "Wildfires drive 250,000 people from homes and edge towards wine city of Bordeaux",
        "synopsis": "EUROPE and FIREFIGHTER \u2014 fighting / clashes (in conflict) reported near San Martin De Valdeiglesias, Madrid, Spain, covered by 102 source(s) across 217 mentions.",
        "sources": [
          "https://www.thewestonmercury.co.uk/news/national/26410171.wildfires-drive-250-000-people-homes-edge-towards-wine-city-bordeaux/",
          "https://www.thetelegraphandargus.co.uk/news/national/26410171.wildfires-drive-250-000-people-homes-edge-towards-wine-city-bordeaux/",
          "https://www.cbsnews.com/news/wildfires-firefighters-france-spain-madrid-bordeaux-valencia/"
        ]
      }
    },
    {
      "type": "Feature",
      "geometry": {
        "type": "Point",
        "coordinates": [
          -77.0364,
          38.8951
        ]
      },
      "properties": {
        "title": "Intent to cooperate \u2014 Washington, District of Columbia, United States",
        "date": "20260726",
        "score": 2.577,
        "mentions": 176,
        "actors": "ADMINISTRATION, BEIJING, CABINET, CIVILIAN, COMPANIES, COMPANY, CONGRESS, EMPLOYEE",
        "headline": "US pauses attacks on Iran for a second day as peace talks continue",
        "synopsis": "ADMINISTRATION and BEIJING \u2014 intent to cooperate (engaging in cooperation) reported near Washington, District of Columbia, United States, covered by 69 source(s) across 176 mentions.",
        "sources": [
          "https://www.aol.co.uk/articles/us-pauses-attacks-iran-second-111624000.html",
          "https://westfaironline.com/world-news/cnn-wire-fact-check-and-analysis-trumps-speech-at-correspondents-dinner/",
          "https://www.theyeshivaworld.com/news/israel-news/2578748/gulf-divide-arab-states-push-to-end-iran-war-but-clash-over-path-to-peace.html"
        ]
      }
    },
    {
      "type": "Feature",
      "geometry": {
        "type": "Point",
        "coordinates": [
          77.2167,
          28.6667
        ]
      },
      "properties": {
        "title": "Protest \u2014 Delhi, Delhi, India",
        "date": "20260726",
        "score": 2.694,
        "mentions": 285,
        "actors": "ACTIVIST, AMIT, ASSEMBLIES, CITIZEN, CONGRESS, DELHI, DEMONSTRATOR, EDUCATION MINIST",
        "headline": "India\u2019s \u2018cockroach\u2019 protesters claim surprise victory as government accepts their demands",
        "synopsis": "ACTIVIST and AMIT \u2014 protest (in conflict) reported near Delhi, Delhi, India, covered by 51 source(s) across 285 mentions.",
        "sources": [
          "https://www.brisbanetimes.com.au/world/asia/india-s-cockroach-protesters-claim-surprise-victory-as-government-accepts-their-demands-20260726-p60ilj.html",
          "https://www.hindustantimes.com/india-news/besides-the-cjp-neha-bora-and-the-aisa-activists-who-fasted-made-reels-too-and-danced-in-joy-eventually-101785068128585.html",
          "https://scroll.in/latest/1094545/family-of-muslim-volunteer-at-jantar-mantar-protest-released-by-up-police"
        ]
      }
    },
    {
      "type": "Feature",
      "geometry": {
        "type": "Point",
        "coordinates": [
          77.2167,
          28.6667
        ]
      },
      "properties": {
        "title": "Yield/concede \u2014 Delhi, Delhi, India",
        "date": "20260726",
        "score": 2.526,
        "mentions": 219,
        "actors": "ACTIVIST, ACTOR, AMIT, AUTHORITIES, CHENNAI, COLLEGE, CONGRESS, DELHI",
        "headline": null,
        "synopsis": "ACTIVIST and ACTOR \u2014 yield/concede (engaging in cooperation) reported near Delhi, Delhi, India, covered by 33 source(s) across 219 mentions.",
        "sources": [
          "https://aninews.in/news/national/general-news/salute-the-revolutionary-students-mdmk-chief-vaiko-after-pradhans-resignation20260726083619/",
          "https://organiser.org/2026/07/26/371777/bharat/cjp-protest-exposes-opposition-shield-violent-protesters-in-delhi-attack-peaceful-citizens-in-their-states/",
          "https://www.oneindia.com/india/nirmala-sitharaman-defends-neet-paper-leak-protest-8157863.html"
        ]
      }
    },
    {
      "type": "Feature",
      "geometry": {
        "type": "Point",
        "coordinates": [
          -77.0364,
          38.8951
        ]
      },
      "properties": {
        "title": "Fighting / clashes \u2014 Washington, District of Columbia, United States",
        "date": "20260726",
        "score": 2.665,
        "mentions": 228,
        "actors": "AMERICAN, BAHRAIN, CHINA, COMMANDER, INTELLECTUAL, INTELLIGENCE, IRAN, IRANIAN",
        "headline": "Police seek witnesses after truck crashes into 3 people during Washington County outdoor party",
        "synopsis": "AMERICAN and BAHRAIN \u2014 fighting / clashes (in conflict) reported near Washington, District of Columbia, United States, covered by 68 source(s) across 228 mentions.",
        "sources": [
          "https://www.wpxi.com/news/local/police-seek-witnesses-after-truck-crashes-into-3-people-during-washington-county-outdoor-party/C3F4ZNFIVVDGTPRPZ327HFJ4RQ/",
          "https://gulfnews.com/world/mena/why-trump-is-hitting-pause-in-iran-the-calculations-behind-washingtons-latest-move-1.500620569",
          "https://jowhar.com/trump-mandates-warning-labels-posted-outside-americas-national-history-museum/"
        ]
      }
    },
    {
      "type": "Feature",
      "geometry": {
        "type": "Point",
        "coordinates": [
          -77.0364,
          38.8951
        ]
      },
      "properties": {
        "title": "Yield/concede \u2014 Washington, District of Columbia, United States",
        "date": "20260726",
        "score": 2.524,
        "mentions": 185,
        "actors": "AMERICAN, CANADIAN, CARRIER, COMPANY, EDITOR IN CHIEF, IRAN, IRANIAN, JOE BIDEN",
        "headline": null,
        "synopsis": "AMERICAN and CANADIAN \u2014 yield/concede (engaging in cooperation) reported near Washington, District of Columbia, United States, covered by 46 source(s) across 185 mentions.",
        "sources": [
          "https://www.vanguardngr.com/2026/07/us-holds-fire-against-iran-as-reports-emerge-of-stockpile-concerns/",
          "https://countercurrents.org/2026/07/enrichment-antics-trumps-saudi-nuclear-deal/",
          "https://www.armstrongeconomics.com/world-news/wef/the-real-conspiracy-behind-covid/"
        ]
      }
    },
    {
      "type": "Feature",
      "geometry": {
        "type": "Point",
        "coordinates": [
          37.6156,
          55.7522
        ]
      },
      "properties": {
        "title": "Fighting / clashes \u2014 Moscow, Moskva, Russia",
        "date": "20260726",
        "score": 2.652,
        "mentions": 228,
        "actors": "ARMED FORCES, AUTHORITIES, CIVILIAN, DEFENCE MINIST, IRAN, IRANIAN, KAZAKHSTAN, KYIV",
        "headline": "Romanian F-16 Shoots Down Third Drone in Three Days Over the Black Sea",
        "synopsis": "ARMED FORCES and AUTHORITIES \u2014 fighting / clashes (in conflict) reported near Moscow, Moskva, Russia, covered by 63 source(s) across 228 mentions.",
        "sources": [
          "http://www.bgnes.com/politics/romanian-f-16-shoots-down-third-drone-in-three-days-over-the-black-sea",
          "https://www.lbc.co.uk/article/russian-attack-ukraine-iran-ship-5HjdfB6_2/",
          "https://www.politico.eu/article/romania-blames-russia-as-military-shoots-down-third-drone/"
        ]
      }
    },
    {
      "type": "Feature",
      "geometry": {
        "type": "Point",
        "coordinates": [
          51.5148,
          35.75
        ]
      },
      "properties": {
        "title": "Material cooperation \u2014 Tehran, Tehran, Iran",
        "date": "20260726",
        "score": 2.506,
        "mentions": 176,
        "actors": "A US, ADMINISTRATION, ARMENIA, BAHRAIN, CHINA, FOREIGN MINIST, IRAN, IRANIAN",
        "headline": "Iran condemns Ukraine over reckless cargo ship attack",
        "synopsis": "A US and ADMINISTRATION \u2014 material cooperation (engaging in cooperation) reported near Tehran, Tehran, Iran, covered by 46 source(s) across 176 mentions.",
        "sources": [
          "http://www.chinanationalnews.com/news/279209773/iran-condemns-ukraine-over-reckless-cargo-ship-attack",
          "https://aa.com.tr/en/middle-east/qatar-fully-resumes-maritime-navigation-activities-after-2-week-pause/4009508",
          "https://english.aawsat.com/features/5300094-how-us-ground-operation-iran-could-unfold"
        ]
      }
    },
    {
      "type": "Feature",
      "geometry": {
        "type": "Point",
        "coordinates": [
          51.5148,
          35.75
        ]
      },
      "properties": {
        "title": "Threat \u2014 Tehran, Tehran, Iran",
        "date": "20260726",
        "score": 2.577,
        "mentions": 213,
        "actors": "A US, ADMINISTRATION, BAHRAIN, BRITAIN, CHINA, DIRECTOR GENERAL, IRAN, IRANIAN",
        "headline": "Iran accuses Ukraine of deadly attack on Caspian commercial vessel",
        "synopsis": "A US and ADMINISTRATION \u2014 threat (in conflict) reported near Tehran, Tehran, Iran, covered by 47 source(s) across 213 mentions.",
        "sources": [
          "https://www.aljazeera.com/news/2026/7/25/iran-accuses-ukraine-of-deadly-attack-on-caspian-commercial-vessel",
          "https://www.rferl.org/a/iran-halts-retaliatory-attacks-us-allies-middle-east/33813331.html",
          "https://www.jns.org/news/u-s-news/iran-warns-us-against-renewed-attacks-warns-of-expanded-war"
        ]
      }
    },
    {
      "type": "Feature",
      "geometry": {
        "type": "Point",
        "coordinates": [
          51.5148,
          35.75
        ]
      },
      "properties": {
        "title": "Consultation \u2014 Tehran, Tehran, Iran",
        "date": "20260726",
        "score": 2.481,
        "mentions": 162,
        "actors": "ARMENIAN, EUROPEAN UNION, FOREIGN MINIST, IRAN, IRANIAN, JOINT CHIEFS OF STAFF, JOURNALIST, MILITARY",
        "headline": "It's time for diplomacy now; US President Trump with surprise move against Iran",
        "synopsis": "ARMENIAN and EUROPEAN UNION \u2014 consultation (engaging in cooperation) reported near Tehran, Tehran, Iran, covered by 47 source(s) across 162 mentions.",
        "sources": [
          "https://keralakaumudi.com/en/en/world/others/donald-trump-with-surprise-move-against-iran-1783966",
          "https://tribune.com.pk/story/2620379/irgc-threatens-uk-over-support-for-us-attacks-on-iran",
          "https://aninews.in/news/world/middle-east/iran-oman-talks-on-reopening-strait-of-hormuz-make-progress-report20260726085301/"
        ]
      }
    },
    {
      "type": "Feature",
      "geometry": {
        "type": "Point",
        "coordinates": [
          77.2167,
          28.6667
        ]
      },
      "properties": {
        "title": "Coercion / seizure \u2014 Delhi, Delhi, India",
        "date": "20260726",
        "score": 2.495,
        "mentions": 185,
        "actors": "AMIT, CHICAGO, CITIZEN, CONGRESS, DELHI, DEMONSTRATOR, EDUCATION MINIST, HARYANA",
        "headline": null,
        "synopsis": "AMIT and CHICAGO \u2014 coercion / seizure (in conflict) reported near Delhi, Delhi, India, covered by 39 source(s) across 185 mentions.",
        "sources": [
          "https://aninews.in/news/national/general-news/nsui-calls-pradhans-resignation-victory-for-millions-of-students-demands-immediate-ban-on-nta20260726084616/",
          "https://www.orissapost.com/india-bloc-to-raise-alleged-crackdown-on-neet-protesters-in-parliament-rahul-writes-to-shah/",
          "https://timesofindia.indiatimes.com/education/news/i-accept-it-with-humility-pralhad-joshi-assumes-charge-as-union-education-minister/articleshow/132639204.cms"
        ]
      }
    },
    {
      "type": "Feature",
      "geometry": {
        "type": "Point",
        "coordinates": [
          51.5148,
          35.75
        ]
      },
      "properties": {
        "title": "Intent to cooperate \u2014 Tehran, Tehran, Iran",
        "date": "20260726",
        "score": 2.475,
        "mentions": 161,
        "actors": "ADMINISTRATION, CHINESE, IRAN, IRANIAN, IRAQ, ISLAMIC, ISRAEL, JOE BIDEN",
        "headline": "Trump steps back from massive Iran strike as risks mount",
        "synopsis": "ADMINISTRATION and CHINESE \u2014 intent to cooperate (engaging in cooperation) reported near Tehran, Tehran, Iran, covered by 46 source(s) across 161 mentions.",
        "sources": [
          "https://www.moneycontrol.com/world/trump-steps-back-from-massive-iran-strike-as-risks-mount-article-13983754.html",
          "https://www.opinionnigeria.com/us-pauses-airstrikes-on-iran-as-reports-cite-concerns-over-weapon-stockpiles/",
          "https://aa.com.tr/en/middle-east/qatar-fully-resumes-maritime-navigation-activities-after-2-week-pause/4009508"
        ]
      }
    },
    {
      "type": "Feature",
      "geometry": {
        "type": "Point",
        "coordinates": [
          35.2333,
          31.7667
        ]
      },
      "properties": {
        "title": "Fighting / clashes \u2014 Jerusalem, Israel (general), Israel",
        "date": "20260726",
        "score": 2.487,
        "mentions": 165,
        "actors": "ATTORNEY, IRAN, ISRAEL, ISRAELI, JERUSALEM, JEWISH, MEDINA, MUSLIM",
        "headline": null,
        "synopsis": "ATTORNEY and IRAN \u2014 fighting / clashes (in conflict) reported near Jerusalem, Israel (general), Israel, covered by 47 source(s) across 165 mentions.",
        "sources": [
          "https://www.silwanic.net/article/news/80017",
          "https://www.silwanic.net/article/news/80018/khalil-al-risheq-killed-by-israeli-fire-at-shu-fat-refugee-camp-checkpoint",
          "https://www.americanthinker.com/articles/2026/07/mamdani-mocked-the-jews-solemn-tisha-b-av-observation/"
        ]
      }
    }
  ]
}