{
  "type": "FeatureCollection",
  "features": [
    {
      "type": "Feature",
      "geometry": {
        "type": "Point",
        "coordinates": [
          -77.0364,
          38.8951
        ]
      },
      "properties": {
        "title": "Diplomatic cooperation \u2014 Washington, District of Columbia, United States",
        "date": "20260725",
        "score": 3.063,
        "mentions": 488,
        "actors": "ACTOR, ADMINISTRATION, ADVOCATE, AFRICA, AMBASSADOR, AMERICAN, BAHRAIN, BRIGADIER GENERAL",
        "headline": "Tonko, Fitzpatrick introduce bipartisan Disability Community Act",
        "synopsis": "ACTOR and ADMINISTRATION \u2014 diplomatic cooperation (engaging in cooperation) reported near Washington, District of Columbia, United States, covered by 145 source(s) across 488 mentions.",
        "sources": [
          "https://www.troyrecord.com/2026/07/25/1590163/",
          "https://www.newsweek.com/donald-trump-100000-h-1b-visa-fee-court-blow-12243874",
          "https://www.brandonsun.com/opinion/2026/07/24/of-pics-and-porcine-politics"
        ]
      }
    },
    {
      "type": "Feature",
      "geometry": {
        "type": "Point",
        "coordinates": [
          34.3333,
          31.4167
        ]
      },
      "properties": {
        "title": "Fighting / clashes \u2014 Gaza, Israel (general), Israel",
        "date": "20260725",
        "score": 3.006,
        "mentions": 472,
        "actors": "ARMY, AUSTRALIA, BEIRUT, CAIRO, CIVILIAN, COMMANDER, GAZA, HAMAS",
        "headline": null,
        "synopsis": "ARMY and AUSTRALIA \u2014 fighting / clashes (in conflict) reported near Gaza, Israel (general), Israel, covered by 112 source(s) across 472 mentions.",
        "sources": [
          "https://www.arabnews.com/node/2652274/middle-east",
          "https://www.straitstimes.com/world/middle-east/israel-kills-senior-hamas-led-police-official-in-gaza-medics-and-police-officials-say",
          "https://www.middleeasteye.net/live-blog/live-blog-update/israel-kills-head-northern-gaza-police-force"
        ]
      }
    },
    {
      "type": "Feature",
      "geometry": {
        "type": "Point",
        "coordinates": [
          -77.0364,
          38.8951
        ]
      },
      "properties": {
        "title": "Appeal \u2014 Washington, District of Columbia, United States",
        "date": "20260725",
        "score": 3.04,
        "mentions": 494,
        "actors": "ABU DHABI, ADMINISTRATION, AMERICAN, ARAB LEAGUE, ARMY, BILL CLINTON, BLOG, BRAZIL",
        "headline": "Supreme Court's Kagan rejects bench's 'rubber stamp' perception",
        "synopsis": "ABU DHABI and ADMINISTRATION \u2014 appeal (engaging in cooperation) reported near Washington, District of Columbia, United States, covered by 124 source(s) across 494 mentions.",
        "sources": [
          "https://news3lv.com/news/nation-world/supreme-courts-elena-kagan-rejects-benchs-rubber-stamp-perception-president-trump-administration",
          "https://www.hindustantimes.com/trending/us/from-sleeping-to-pissed-5-viral-trump-moments-from-white-house-correspondents-dinner-101784946840433.html",
          "https://www.thepeterboroughexaminer.com/news/world/united-states/supreme-court-litigator-gets-6-years-in-prison-for-tax-evasion-case-after-gambling-millions-on-poker/article_62e22d9d-de5a-5e94-9be4-a7d44887231d.html"
        ]
      }
    },
    {
      "type": "Feature",
      "geometry": {
        "type": "Point",
        "coordinates": [
          77.2167,
          28.6667
        ]
      },
      "properties": {
        "title": "Protest \u2014 Delhi, Delhi, India",
        "date": "20260725",
        "score": 3.005,
        "mentions": 489,
        "actors": "ACTIVIST, ACTOR, AMIT, ARMED POLICE, AUTHORITIES, BIHAR, CHIEF JUSTICE, CHIEF MINISTER",
        "headline": "Inside CJP\u2019s rise: How a viral \u2018cockroach\u2019 meme sparked India\u2019s biggest Gen Z protest and led to the minister\u2019s resignation",
        "synopsis": "ACTIVIST and ACTOR \u2014 protest (in conflict) reported near Delhi, Delhi, India, covered by 104 source(s) across 489 mentions.",
        "sources": [
          "https://gulfnews.com/world/asia/india/inside-cjps-rise-how-a-viral-cockroach-joke-became-indias-biggest-gen-z-protest-movement-1.500619876",
          "https://scroll.in/latest/1094533/up-police-accused-of-detaining-muslim-mans-family-for-serving-food-at-jantar-mantar-protest",
          "https://dunyanews.tv/en/World/964586-indian-education-minister-resigns-in-major-win-for-youth-protesters"
        ]
      }
    },
    {
      "type": "Feature",
      "geometry": {
        "type": "Point",
        "coordinates": [
          -77.0364,
          38.8951
        ]
      },
      "properties": {
        "title": "Intent to cooperate \u2014 White House, District of Columbia, United States",
        "date": "20260725",
        "score": 2.975,
        "mentions": 422,
        "actors": "ADMINISTRATION, AMERICAN, APPEALS COURT, BANGLADESH, CALIF, CHAMBER OF COMMERCE, CHINA, COMMUNITY",
        "headline": "White House expands pledge to keep electric bills from skyrocketing amid data center boom",
        "synopsis": "ADMINISTRATION and AMERICAN \u2014 intent to cooperate (engaging in cooperation) reported near White House, District of Columbia, United States, covered by 118 source(s) across 422 mentions.",
        "sources": [
          "https://midmichigannow.com/news/nation-world/white-house-expands-pledge-to-keep-electric-bills-under-control-amid-data-center-boom-ratepayer-protection-pledge-trump-tech-companies-artificial-intelligence",
          "http://www.idahopress.com/opinion/columnists/stapilus-the-future-of-idaho-birth-care/article_172fb07d-3557-4961-9551-6bc6c5521175.html",
          "https://www.washingtonexaminer.com/news/campaigns/4661672/house-starts-august-recess-kicks-off-campaign-stretch-traveling-districts/"
        ]
      }
    },
    {
      "type": "Feature",
      "geometry": {
        "type": "Point",
        "coordinates": [
          51.5148,
          35.75
        ]
      },
      "properties": {
        "title": "Fighting / clashes \u2014 Tehran, Tehran, Iran",
        "date": "20260725",
        "score": 2.93,
        "mentions": 371,
        "actors": "AMERICAN, BAHRAIN, CHINA, COMMANDO, DIPLOMAT, DJIBOUTI, EMBASSY, FIGHTER JET",
        "headline": "Iranian threat forced Trump to switch planes after NATO summit",
        "synopsis": "AMERICAN and BAHRAIN \u2014 fighting / clashes (in conflict) reported near Tehran, Tehran, Iran, covered by 118 source(s) across 371 mentions.",
        "sources": [
          "https://www.smh.com.au/world/north-america/iranian-threat-forced-trump-to-switch-planes-after-nato-summit-20260725-p60ih7.html",
          "https://www.lbc.co.uk/article/iran-irgc-people-smuggling-uk-5Hjdf8m_2/",
          "https://aninews.in/news/world/us/middle-east-escalation-bahrain-and-kuwait-carried-out-first-iran-strikes-with-uae-help-reveals-wsj-report20260725173212/"
        ]
      }
    },
    {
      "type": "Feature",
      "geometry": {
        "type": "Point",
        "coordinates": [
          77.2167,
          28.6667
        ]
      },
      "properties": {
        "title": "Diplomatic cooperation \u2014 Delhi, Delhi, India",
        "date": "20260725",
        "score": 2.757,
        "mentions": 317,
        "actors": "ACTIVIST, ACTOR, AMIT, CHENNAI, CHIEF MINISTER, CITIZEN, CONGRESS, DELHI",
        "headline": "'Chhatra Shakti Zindabad': CJP Hails Dharmendra Pradhan's Resignation As Victory For Student Protest",
        "synopsis": "ACTIVIST and ACTOR \u2014 diplomatic cooperation (engaging in cooperation) reported near Delhi, Delhi, India, covered by 60 source(s) across 317 mentions.",
        "sources": [
          "https://www.freepressjournal.in/education/chhatra-shakti-zindabad-cjp-hails-dharmendra-pradhans-resignation-as-victory-for-student-protest",
          "https://aninews.in/news/entertainment/bollywood/priyanka-chopra-jonas-kamal-haasan-prakash-raj-react-to-dharmendra-pradhans-resignation-praise-gen-z20260725182613/",
          "https://scroll.in/latest/1094534/dharmendra-pradhan-resigns-as-union-education-minister-as-youth-protests-escalate"
        ]
      }
    },
    {
      "type": "Feature",
      "geometry": {
        "type": "Point",
        "coordinates": [
          -77.0364,
          38.8951
        ]
      },
      "properties": {
        "title": "Rejection \u2014 White House, District of Columbia, United States",
        "date": "20260725",
        "score": 2.92,
        "mentions": 397,
        "actors": "ADMINISTRATION, AIR FORCE, AMERICAN, APPEALS COURT, CHINA, COMPANY, CONGRESS, CONSTITUENT",
        "headline": "Supreme Court's Kagan rejects bench's 'rubber stamp' perception",
        "synopsis": "ADMINISTRATION and AIR FORCE \u2014 rejection (in conflict) reported near White House, District of Columbia, United States, covered by 97 source(s) across 397 mentions.",
        "sources": [
          "https://news3lv.com/news/nation-world/supreme-courts-elena-kagan-rejects-benchs-rubber-stamp-perception-president-trump-administration",
          "https://www.foreignpolicyjournal.com/2026/07/25/house-passes-measure-to-constrain-trump-on-iran-as-senate-blocks-similar-resolution/",
          "https://www.el-balad.com/17035511"
        ]
      }
    },
    {
      "type": "Feature",
      "geometry": {
        "type": "Point",
        "coordinates": [
          30.5167,
          50.4333
        ]
      },
      "properties": {
        "title": "Intent to cooperate \u2014 Kyiv, Kyyiv, Misto, Ukraine",
        "date": "20260725",
        "score": 2.737,
        "mentions": 268,
        "actors": "CIVILIAN, IRAN, IRELAND, IRISH, JAPAN, KYIV, NATO, PRESIDENT",
        "headline": "Ukraine peace talk hope: Trump, Zelenskiy to meet in US",
        "synopsis": "CIVILIAN and IRAN \u2014 intent to cooperate (engaging in cooperation) reported near Kyiv, Kyyiv, Misto, Ukraine, covered by 75 source(s) across 268 mentions.",
        "sources": [
          "https://www.easternriverinachronicle.com.au/story/9317313/ukraine-peace-talk-hope-trump-zelenskiy-to-meet-in-us/",
          "http://www.phoenixherald.com/news/279206144/ireland-s-leader-says-alumina-link-to-russian-weapons-unproven",
          "https://www.globalsecurity.org/wmd/library/news/ukraine/2026/07/ukraine-260724-ukraine-mod01.htm"
        ]
      }
    },
    {
      "type": "Feature",
      "geometry": {
        "type": "Point",
        "coordinates": [
          -77.0364,
          38.8951
        ]
      },
      "properties": {
        "title": "Fighting / clashes \u2014 Washington, District of Columbia, United States",
        "date": "20260725",
        "score": 2.78,
        "mentions": 280,
        "actors": "ADMINISTRATION, AHVAZ, AMERICAN, AMERICAN TROOPS, ARMY, ATTORNEY, BAHRAIN, CIVILIAN",
        "headline": "Trump leaves crowd speechless with 'disgusting' sex joke",
        "synopsis": "ADMINISTRATION and AHVAZ \u2014 fighting / clashes (in conflict) reported near Washington, District of Columbia, United States, covered by 88 source(s) across 280 mentions.",
        "sources": [
          "https://www.express.co.uk/news/world/2232883/donald-trump-leaves-crowd-speechless",
          "https://www.dailymail.com/news/article-16004293/Donald-Trump-kaitlan-collins-cnn-dylan-mulvaney-white-house.html",
          "https://www.thewrap.com/media-platforms/journalism/jim-acosta-gavin-newsom-more-react-trump-whcd-speech/"
        ]
      }
    },
    {
      "type": "Feature",
      "geometry": {
        "type": "Point",
        "coordinates": [
          51.5148,
          35.75
        ]
      },
      "properties": {
        "title": "Consultation \u2014 Tehran, Tehran, Iran",
        "date": "20260725",
        "score": 2.714,
        "mentions": 240,
        "actors": "AL JAZEERA, AUTHORITIES, CHINA, CHINESE, EGYPT, IRAN, IRANIAN, IRAQI",
        "headline": "Pakistan, Iran explore fresh talks with US in China-initiated push: Report",
        "synopsis": "AL JAZEERA and AUTHORITIES \u2014 consultation (engaging in cooperation) reported near Tehran, Tehran, Iran, covered by 82 source(s) across 240 mentions.",
        "sources": [
          "https://timesofindia.indiatimes.com/world/middle-east/pakistan-iran-explore-fresh-talks-with-us-in-china-initiated-push-report/articleshow/132617938.cms",
          "https://www.moneycontrol.com/world/lpg-tanker-with-28-indian-crew-members-on-board-attacked-in-iranian-waters-article-13983197.html",
          "https://en.apa.az/america/trump-says-iran-is-getting-more-serious-in-talks-517520"
        ]
      }
    },
    {
      "type": "Feature",
      "geometry": {
        "type": "Point",
        "coordinates": [
          37.6156,
          55.7522
        ]
      },
      "properties": {
        "title": "Fighting / clashes \u2014 Moscow, Moskva, Russia",
        "date": "20260725",
        "score": 2.762,
        "mentions": 314,
        "actors": "BELARUS, BELGOROD, CHINA, CHRISTIANITY, CIVILIAN, DONETSK, FIGHTER, FIGHTER JET",
        "headline": null,
        "synopsis": "BELARUS and BELGOROD \u2014 fighting / clashes (in conflict) reported near Moscow, Moskva, Russia, covered by 63 source(s) across 314 mentions.",
        "sources": [
          "https://www.couriernews.com/news/world/ukraine-is-still-fortifying-its-border-with-belarus-years-after-russia-invaded-from-there/article_00146918-e840-596f-a359-71963ae119ba.html",
          "https://www.chronicle.lu/category/international-news/62590-romania-says-it-shot-down-2nd-drone-breaching-its-airspace",
          "https://www.wral.com/news/ap/6c4df-russian-attack-kills-3-in-ukraine-s-sumy-region-as-romania-downs-second-drone-in-2-days/"
        ]
      }
    },
    {
      "type": "Feature",
      "geometry": {
        "type": "Point",
        "coordinates": [
          77.2167,
          28.6667
        ]
      },
      "properties": {
        "title": "Appeal \u2014 Delhi, Delhi, India",
        "date": "20260725",
        "score": 2.691,
        "mentions": 274,
        "actors": "ACTIVIST, ACTOR, BIHAR, CABINET, CANADA, CHINA, CITIZEN, COMPANY",
        "headline": null,
        "synopsis": "ACTIVIST and ACTOR \u2014 appeal (engaging in cooperation) reported near Delhi, Delhi, India, covered by 55 source(s) across 274 mentions.",
        "sources": [
          "https://aninews.in/news/entertainment/bollywood/priyanka-chopra-jonas-kamal-haasan-prakash-raj-react-to-dharmendra-pradhans-resignation-praise-gen-z20260725182613/",
          "https://www.mensxp.com/entertainment/celebrities/184937-salman-khan-darr-gaya-bhai-replies-trolls-amid-cjp-student-protest.html",
          "https://aninews.in/news/national/general-news/sonia-gandhi-electoral-roll-name-inclusion-matter-delhi-court-reserves-order-on-appeal-against-senior-congress-leader20260725152643/"
        ]
      }
    },
    {
      "type": "Feature",
      "geometry": {
        "type": "Point",
        "coordinates": [
          30.5167,
          50.4333
        ]
      },
      "properties": {
        "title": "Fighting / clashes \u2014 Kyiv, Kyyiv, Misto, Ukraine",
        "date": "20260725",
        "score": 2.757,
        "mentions": 292,
        "actors": "AMERICAN, ATTORNEY GENERAL, AUTHORITIES, BELARUS, CIVILIAN, GENERALS, HUNGARY, INDUSTRY",
        "headline": "Ukraine is still fortifying its border with Belarus, a Russian ally",
        "synopsis": "AMERICAN and ATTORNEY GENERAL \u2014 fighting / clashes (in conflict) reported near Kyiv, Kyyiv, Misto, Ukraine, covered by 71 source(s) across 292 mentions.",
        "sources": [
          "https://www.wgauradio.com/news/world/ukraine-is-still/YEX2I4T2ZI5KRL4WTH3G73EL3Y/",
          "https://www.globalsecurity.org/wmd/library/news/ukraine/2026/07/ukraine-260724-ukraine-mfa01.htm",
          "https://slate.com/news-and-politics/2026/07/donald-trump-iran-news-senate-maine-south-carolina.html"
        ]
      }
    },
    {
      "type": "Feature",
      "geometry": {
        "type": "Point",
        "coordinates": [
          51.5148,
          35.75
        ]
      },
      "properties": {
        "title": "Diplomatic cooperation \u2014 Tehran, Tehran, Iran",
        "date": "20260725",
        "score": 2.668,
        "mentions": 244,
        "actors": "ACTIVIST, ADMINISTRATION, BULGARIAN, CHINA, CHINESE, CIVILIAN, EYRE, IRAN",
        "headline": "Iran-Backed Houthis Claim Missile Strike On Saudi Arabia",
        "synopsis": "ACTIVIST and ADMINISTRATION \u2014 diplomatic cooperation (engaging in cooperation) reported near Tehran, Tehran, Iran, covered by 61 source(s) across 244 mentions.",
        "sources": [
          "http://www.europesun.com/news/279208955/iran-backed-houthis-claim-missile-strike-on-saudi-arabia",
          "https://www.lbc.co.uk/article/iran-irgc-people-smuggling-uk-5Hjdf8m_2/",
          "https://nuclear-news.net/2026/07/25/3-b1-trump-approves-30-year-nuclear-enrichment-deal-with-saudi-arabia-without-safeguards-report/"
        ]
      }
    },
    {
      "type": "Feature",
      "geometry": {
        "type": "Point",
        "coordinates": [
          77.2,
          28.6
        ]
      },
      "properties": {
        "title": "Protest \u2014 New Delhi, Delhi, India",
        "date": "20260725",
        "score": 2.728,
        "mentions": 316,
        "actors": "ACTIVIST, ARIANA, CONGRESS, COUNCIL OF MINISTERS, DELHI, DEMONSTRATOR, EDUCATION MINIST, ENVIRONMENTALIST",
        "headline": null,
        "synopsis": "ACTIVIST and ARIANA \u2014 protest (in conflict) reported near New Delhi, Delhi, India, covered by 51 source(s) across 316 mentions.",
        "sources": [
          "https://aninews.in/news/national/general-news/cjp-founder-abhijeet-dipke-says-we-have-done-it-dharmendra-pradhan-has-resigned20260725145904/",
          "https://www.samaa.tv/2087354192-cockroach-janta-party-ends-nationwide-neet-protest-after-talks-with-govt",
          "https://www.orissapost.com/celebrities-hail-students-victory-after-dharmendra-pradhan-resigns/"
        ]
      }
    },
    {
      "type": "Feature",
      "geometry": {
        "type": "Point",
        "coordinates": [
          77.2167,
          28.6667
        ]
      },
      "properties": {
        "title": "Yield/concede \u2014 Delhi, Delhi, India",
        "date": "20260725",
        "score": 2.628,
        "mentions": 240,
        "actors": "ACTIVIST, ACTOR, AUTHORITIES, CABINET, CHENNAI, CIVIL SERVANT, CONGRESS, DELHI",
        "headline": "How Centre scrambled to defuse student protests in past three days: Gen Z outreach, Pradhan's resignation, CJP protest called off",
        "synopsis": "ACTIVIST and ACTOR \u2014 yield/concede (engaging in cooperation) reported near Delhi, Delhi, India, covered by 50 source(s) across 240 mentions.",
        "sources": [
          "https://www.moneycontrol.com/news/india/gen-z-outreach-pradhans-resignation-how-centre-scrambled-to-defuse-student-protests-in-past-three-days-13983408.html",
          "https://aninews.in/news/national/politics/youth-forced-government-to-accept-moral-responsibility-sharad-pawar-on-dharmendra-pradhans-resignation20260725160621/",
          "https://www.aol.co.uk/articles/india-education-minister-resigns-mass-100642000.html"
        ]
      }
    },
    {
      "type": "Feature",
      "geometry": {
        "type": "Point",
        "coordinates": [
          -77.0364,
          38.8951
        ]
      },
      "properties": {
        "title": "Coercion / seizure \u2014 Washington, District of Columbia, United States",
        "date": "20260725",
        "score": 2.665,
        "mentions": 250,
        "actors": "ACTOR, ADMINISTRATION, ATTORNEY GENERAL, BEIRUT, CARRIER, CITIZEN, COMPANIES, DEPARTMENT OF EDUCATION",
        "headline": "Ukraine peace talk hope: Trump, Zelenskiy to meet in US",
        "synopsis": "ACTOR and ADMINISTRATION \u2014 coercion / seizure (in conflict) reported near Washington, District of Columbia, United States, covered by 57 source(s) across 250 mentions.",
        "sources": [
          "https://www.easternriverinachronicle.com.au/story/9317313/ukraine-peace-talk-hope-trump-zelenskiy-to-meet-in-us/",
          "https://www.mercurynews.com/2026/07/25/commentary-america-is-at-war-pete-hegseth-is-focused-on-beards-and-hormones/",
          "https://www.washingtonexaminer.com/news/house/4662729/how-acronym-bills-took-over-washington-evolving-communication-strategies/"
        ]
      }
    },
    {
      "type": "Feature",
      "geometry": {
        "type": "Point",
        "coordinates": [
          77.2167,
          28.6667
        ]
      },
      "properties": {
        "title": "Intent to cooperate \u2014 Delhi, Delhi, India",
        "date": "20260725",
        "score": 2.625,
        "mentions": 243,
        "actors": "ASSEMBLIES, CITIZEN, DELHI, EDUCATION MINIST, EMPLOYEE, ENGINEER, ENTREPRENEUR, EUROPEAN",
        "headline": "President Murmu Concludes Historic Three-Nation European Tour to Moldova, North Macedonia & Romania",
        "synopsis": "ASSEMBLIES and CITIZEN \u2014 intent to cooperate (engaging in cooperation) reported near Delhi, Delhi, India, covered by 48 source(s) across 243 mentions.",
        "sources": [
          "http://www.rozanaspokesman.com/news/nation/250726/president-murmu-concludes-three-nation-european-tour-heads-back-to-de.html",
          "https://aninews.in/news/national/general-news/cjp-withdraws-protest-in-good-faith-after-pradhans-resignation-says-govt-agreed-to-all-demands20260725175007/",
          "https://aninews.in/news/national/general-news/cockroach-janta-party-alleges-illegal-detention-of-youths-by-delhi-police-warns-of-protest-at-police-headquarters20260725142526/"
        ]
      }
    },
    {
      "type": "Feature",
      "geometry": {
        "type": "Point",
        "coordinates": [
          77.2167,
          28.6667
        ]
      },
      "properties": {
        "title": "Coercion / seizure \u2014 Delhi, Delhi, India",
        "date": "20260725",
        "score": 2.642,
        "mentions": 250,
        "actors": "ACTIVIST, ADMINISTRATION, AUTHORITIES, CABINET, COLLEGE, CONGRESS, CRIMINAL, DELHI",
        "headline": "Delhi Metro Reopens Entry Gates At Rajiv Chowk, Mandi House & Central Secretariat; 15 Stations Remain Shut Amid CJP Protest",
        "synopsis": "ACTIVIST and ADMINISTRATION \u2014 coercion / seizure (in conflict) reported near Delhi, Delhi, India, covered by 50 source(s) across 250 mentions.",
        "sources": [
          "https://www.freepressjournal.in/india/delhi-metro-reopens-entry-gates-at-rajiv-chowk-mandi-house-central-secretariat-15-stations-remain-shut-amid-cjp-protest",
          "https://scroll.in/article/1094525/cjp-protest-is-the-boy-who-yelled-about-the-emperors-new-clothes",
          "https://scroll.in/latest/1094533/up-police-accused-of-detaining-muslim-mans-family-for-serving-food-at-jantar-mantar-protest"
        ]
      }
    },
    {
      "type": "Feature",
      "geometry": {
        "type": "Point",
        "coordinates": [
          36.3,
          33.5
        ]
      },
      "properties": {
        "title": "Intent to cooperate \u2014 Damascus, Dimashq, Syria",
        "date": "20260725",
        "score": 2.552,
        "mentions": 216,
        "actors": "AL QAEDA, ANTONIO GUTERRES, BEIRUT, CIVIL SOCIETY, DAMASCUS, GOVERNMENT OFFICIAL, ISRAEL, ISRAELI",
        "headline": "Guterres to be first UN chief to visit Syria since 2009",
        "synopsis": "AL QAEDA and ANTONIO GUTERRES \u2014 intent to cooperate (engaging in cooperation) reported near Damascus, Dimashq, Syria, covered by 40 source(s) across 216 mentions.",
        "sources": [
          "https://www.goulburnpost.com.au/story/9317423/guterres-to-be-first-un-chief-to-visit-syria-since-2009/",
          "https://www.arabnews.com/node/2652245/middle-east",
          "https://cyprus-mail.com/2026/07/25/guterres-makes-first-visit-to-syria-by-un-chief-since-before-civil-war"
        ]
      }
    },
    {
      "type": "Feature",
      "geometry": {
        "type": "Point",
        "coordinates": [
          51.5148,
          35.75
        ]
      },
      "properties": {
        "title": "Threat \u2014 Tehran, Tehran, Iran",
        "date": "20260725",
        "score": 2.64,
        "mentions": 233,
        "actors": "A US, AMERICAN, BAHRAIN, BEIJING, CHINA, CIVILIAN, DIRECTOR GENERAL, DJIBOUTI",
        "headline": "Trump swapped planes over assassination fears NYT",
        "synopsis": "A US and AMERICAN \u2014 threat (in conflict) reported near Tehran, Tehran, Iran, covered by 57 source(s) across 233 mentions.",
        "sources": [
          "http://www.cincinnatisun.com/news/279208605/trump-swapped-planes-over-assassination-fears-nyt",
          "https://pmnewsnigeria.com/2026/07/25/trump-draws-red-line-for-putin-xi-over-iran-war/",
          "https://www.orissapost.com/lpg-tanker-with-28-indian-crew-members-comes-under-attack-near-strait-of-hormuz/"
        ]
      }
    },
    {
      "type": "Feature",
      "geometry": {
        "type": "Point",
        "coordinates": [
          51.5148,
          35.75
        ]
      },
      "properties": {
        "title": "Intent to cooperate \u2014 Tehran, Tehran, Iran",
        "date": "20260725",
        "score": 2.508,
        "mentions": 160,
        "actors": "CHINA, CHINESE, IRAN, ISRAEL, ISRAELI, MEDIA, MOSCOW, NATO",
        "headline": "Iran determined to defend national interests, security: FM Araghchi",
        "synopsis": "CHINA and CHINESE \u2014 intent to cooperate (engaging in cooperation) reported near Tehran, Tehran, Iran, covered by 57 source(s) across 160 mentions.",
        "sources": [
          "https://www.presstv.co.uk/Detail/2026/07/25/772954/Iran-determined-defend-national-interests,-security--FM-Araghchi",
          "https://dunyanews.tv/en/World/964562-houthis-claim-strike-on-saudi-arabia-as-middle-east-conflict-deepens",
          "https://en.apa.az/america/trump-says-iran-is-getting-more-serious-in-talks-517520"
        ]
      }
    },
    {
      "type": "Feature",
      "geometry": {
        "type": "Point",
        "coordinates": [
          35.2636,
          32.2199
        ]
      },
      "properties": {
        "title": "Fighting / clashes \u2014 Nablus, West Bank (general), West Bank",
        "date": "20260725",
        "score": 2.586,
        "mentions": 190,
        "actors": "AL JAZEERA, ARMY, CITIZEN, GOVERNMENT, HOSPITAL, ISRAEL, ISRAELI, MEDIA",
        "headline": null,
        "synopsis": "AL JAZEERA and ARMY \u2014 fighting / clashes (in conflict) reported near Nablus, West Bank (general), West Bank, covered by 63 source(s) across 190 mentions.",
        "sources": [
          "https://dailypioneer.com/news/4-palestinians-1-israeli-dead-after-west-bank-shooting",
          "https://brudirect.com/post/Four-Palestinians-and-two-Israelis-killed-in-West-Bank-shooting",
          "https://www.miragenews.com/settler-violence-surge-threatens-west-bank-1716194/"
        ]
      }
    },
    {
      "type": "Feature",
      "geometry": {
        "type": "Point",
        "coordinates": [
          30.5167,
          50.4333
        ]
      },
      "properties": {
        "title": "Diplomatic cooperation \u2014 Kyiv, Kyyiv, Misto, Ukraine",
        "date": "20260725",
        "score": 2.508,
        "mentions": 184,
        "actors": "CANADA, CONGRESS, IRAN, IRELAND, KIEV, KYIV, MEDIA, MILITARY",
        "headline": "No proof alumina reached Russian arms makers, Ireland\u2019s PM says",
        "synopsis": "CANADA and CONGRESS \u2014 diplomatic cooperation (engaging in cooperation) reported near Kyiv, Kyyiv, Misto, Ukraine, covered by 43 source(s) across 184 mentions.",
        "sources": [
          "http://www.phoenixherald.com/news/279206144/ireland-s-leader-says-alumina-link-to-russian-weapons-unproven",
          "https://www.kyivpost.com/post/81043",
          "http://www.australianherald.com/news/279209121/interview-oleksandra-matviichuk"
        ]
      }
    }
  ]
}