{
  "type": "FeatureCollection",
  "features": [
    {
      "type": "Feature",
      "geometry": {
        "type": "Point",
        "coordinates": [
          -77.0364,
          38.8951
        ]
      },
      "properties": {
        "title": "Intent to cooperate \u2014 Washington, District of Columbia, United States",
        "date": "20260803",
        "score": 3.053,
        "mentions": 552,
        "actors": "ADMINISTRATION, ADVOCATE, AMERICAN, APPEALS COURT, BAHRAIN, BRUNSWICK, BUSINESS, CHAMBER",
        "headline": "Bedbugs, bad Wi-Fi: Federal workers say forced summer relocations have been chaos",
        "synopsis": "ADMINISTRATION and ADVOCATE \u2014 intent to cooperate (engaging in cooperation) reported near Washington, District of Columbia, United States, covered by 144 source(s) across 552 mentions.",
        "sources": [
          "https://www.ualrpublicradio.org/npr-news/2026-08-03/bedbugs-bad-wi-fi-federal-workers-say-forced-summer-relocations-have-been-chaos",
          "https://www.wkyufm.org/news/2026-08-03/for-republicans-planning-post-trump-future-one-race-in-washington-is-worth-watching",
          "https://wwmt.com/news/nation-world/hasan-piker-james-carville-will-leave-democratic-party-major-force-rick-scott-gop-democratic-socialists-of-america-communism"
        ]
      }
    },
    {
      "type": "Feature",
      "geometry": {
        "type": "Point",
        "coordinates": [
          34.3333,
          31.4167
        ]
      },
      "properties": {
        "title": "Fighting / clashes \u2014 Gaza City, Israel (general), Israel",
        "date": "20260803",
        "score": 2.845,
        "mentions": 363,
        "actors": "AL JAZEERA, ARMY, AUTHORITIES, CITIZEN, CIVILIAN, COMMANDER, DISPLACED FAMILIES, DISPLACED PEOPLE",
        "headline": null,
        "synopsis": "AL JAZEERA and ARMY \u2014 fighting / clashes (in conflict) reported near Gaza City, Israel (general), Israel, covered by 100 source(s) across 363 mentions.",
        "sources": [
          "https://kashmirreader.com/2026/08/03/307250/",
          "https://www.dailysabah.com/world/mid-east/israels-latest-gaza-killings-show-netanyahu-against-peace-turkiye",
          "https://kashmirlife.net/pregnant-woman-husband-and-son-killed-in-israeli-strike-on-gaza-city-446069/"
        ]
      }
    },
    {
      "type": "Feature",
      "geometry": {
        "type": "Point",
        "coordinates": [
          -77.0364,
          38.8951
        ]
      },
      "properties": {
        "title": "Appeal \u2014 Washington, District of Columbia, United States",
        "date": "20260803",
        "score": 2.92,
        "mentions": 410,
        "actors": "ADMINISTRATION, AFGHANISTAN, AMERICAN, ANTIGUA AND BARBUDA, BAHRAIN, BATTLESHIP, BUSINESS, CABINET",
        "headline": "Bedbugs, bad Wi-Fi: Federal workers say forced summer relocations have been chaos",
        "synopsis": "ADMINISTRATION and AFGHANISTAN \u2014 appeal (engaging in cooperation) reported near Washington, District of Columbia, United States, covered by 121 source(s) across 410 mentions.",
        "sources": [
          "https://www.ualrpublicradio.org/npr-news/2026-08-03/bedbugs-bad-wi-fi-federal-workers-say-forced-summer-relocations-have-been-chaos",
          "https://english.news.cn/20260803/57364110d1584ec09e3b6b5d49b148f6/c.html",
          "http://www.israelherald.com/news/279220089/trump-says-us-iran-talks-to-begin-monday-after-shelving-planned-strike"
        ]
      }
    },
    {
      "type": "Feature",
      "geometry": {
        "type": "Point",
        "coordinates": [
          -114.461,
          42.563
        ]
      },
      "properties": {
        "title": "Fighting / clashes \u2014 Twin Falls, Idaho, United States",
        "date": "20260803",
        "score": 2.8,
        "mentions": 343,
        "actors": "ASSAILANT, BUSINESS, CALIF, CHAD, CITIZEN, COMPANY, EMPLOYEE, GUNMAN",
        "headline": null,
        "synopsis": "ASSAILANT and BUSINESS \u2014 fighting / clashes (in conflict) reported near Twin Falls, Idaho, United States, covered by 86 source(s) across 343 mentions.",
        "sources": [
          "http://www.greenevillesun.com/news/in-n-out-burger-employee-among-3-dead-in-shooting-at-idaho-fast-food-restaurant/article_6113bb24-0297-58d6-8923-62dfa23f8d63.html",
          "https://victorygirlsblog.com/a-good-guy-with-a-gun-at-in-n-out-in-idaho/",
          "https://bnonews.com/index.php/2026/08/police-identify-gunman-in-idaho-in-n-out-shooting-that-killed-3/"
        ]
      }
    },
    {
      "type": "Feature",
      "geometry": {
        "type": "Point",
        "coordinates": [
          -77.0422,
          38.9215
        ]
      },
      "properties": {
        "title": "Diplomatic cooperation \u2014 Adams Morgan, District of Columbia, United States",
        "date": "20260803",
        "score": 2.859,
        "mentions": 349,
        "actors": "A US, ADMINISTRATION, AFRICA, AMERICAN, ATTORNEY GENERAL, BEIJING, BRAZIL, COLOMBIA",
        "headline": "Missing woman located after pleas from police, DC event venue",
        "synopsis": "A US and ADMINISTRATION \u2014 diplomatic cooperation (engaging in cooperation) reported near Adams Morgan, District of Columbia, United States, covered by 117 source(s) across 349 mentions.",
        "sources": [
          "https://www.fox5dc.com/news/missing-woman-last-seen-adams-morgan-area-worked-dc-event-venue",
          "https://www.manilatimes.net/2026/08/03/tmt-newswire/globenewswire/blue-star-families-names-charles-plummer-as-its-first-president/2396992",
          "https://www.floridaweekly.com/articles/fort-myers-arts-and-entertainment-news/fort-myers/a-field-of-heroes-sanibel-to-honor-9-11-lives-lost-through-community-memorial/"
        ]
      }
    },
    {
      "type": "Feature",
      "geometry": {
        "type": "Point",
        "coordinates": [
          -77.0364,
          38.8951
        ]
      },
      "properties": {
        "title": "Coercion / seizure \u2014 Washington, District of Columbia, United States",
        "date": "20260803",
        "score": 2.717,
        "mentions": 301,
        "actors": "ACTOR, ADMINISTRATION, AFGHANISTAN, AMERICAN, ATTORNEY, ATTORNEY GENERAL, AUTHORITIES, BUSINESS",
        "headline": "She protested ICE raids. Then agents showed up at her door",
        "synopsis": "ACTOR and ADMINISTRATION \u2014 coercion / seizure (in conflict) reported near Washington, District of Columbia, United States, covered by 69 source(s) across 301 mentions.",
        "sources": [
          "https://www.wdiy.org/npr-news/2026-08-03/the-doj-is-increasingly-charging-ice-protesters-with-criminal-conspiracy",
          "https://www.newcastleherald.com.au/story/9322448/we-are-not-out-of-danger-mass-fire-evacuations-in-us/",
          "https://lobotero.com/2026/08/03/what-the-hell-is-anti-weaponization-fund/"
        ]
      }
    },
    {
      "type": "Feature",
      "geometry": {
        "type": "Point",
        "coordinates": [
          51.5148,
          35.75
        ]
      },
      "properties": {
        "title": "Diplomatic cooperation \u2014 Tehran, Tehran, Iran",
        "date": "20260803",
        "score": 2.847,
        "mentions": 365,
        "actors": "AL QAEDA, AMBASSADOR, FIGHTER JET, FOREIGN MINIST, FRENCH, HASSAN, INVESTOR, IRAN",
        "headline": "Trump confirms resumption of talks with Iran, Strait of Hormuz deal nears-Xinhua",
        "synopsis": "AL QAEDA and AMBASSADOR \u2014 diplomatic cooperation (engaging in cooperation) reported near Tehran, Tehran, Iran, covered by 100 source(s) across 365 mentions.",
        "sources": [
          "https://english.news.cn/20260803/d7137b8959c240869ce7cbe719e419cb/c.html",
          "https://www.yahoo.com/news/politics/articles/iran-denies-trumps-claim-that-new-talks-will-begin-on-monday-102911068.html",
          "https://www.2news.com/news/national/the-latest-blanche-rescinds-fund-for-trump-allies-after-senators-threaten-to-block-his-ag/article_6b73bc5a-a32e-5973-bc1f-4a2d56352823.html"
        ]
      }
    },
    {
      "type": "Feature",
      "geometry": {
        "type": "Point",
        "coordinates": [
          51.5148,
          35.75
        ]
      },
      "properties": {
        "title": "Fighting / clashes \u2014 Tehran, Tehran, Iran",
        "date": "20260803",
        "score": 2.706,
        "mentions": 274,
        "actors": "A US, ADMINISTRATION, AIR FORCE, AMERICAN, BAHRAIN, DEFENCE FORCE, DEFENSE MINIST, DJIBOUTI",
        "headline": "Iran's president says necessary to make U.S. adhere to MoU-Xinhua",
        "synopsis": "A US and ADMINISTRATION \u2014 fighting / clashes (in conflict) reported near Tehran, Tehran, Iran, covered by 78 source(s) across 274 mentions.",
        "sources": [
          "https://english.news.cn/20260803/b2dd1920852747d4aa7aa25e38c0a551/c.html",
          "https://www.ibtimes.co.uk/us-military-seeks-unconventional-strategies-pressure-iran-1812121",
          "https://en.apa.az/asia/iran-claims-to-shoot-down-mq-9-drone-over-strait-of-hormuz-518779"
        ]
      }
    },
    {
      "type": "Feature",
      "geometry": {
        "type": "Point",
        "coordinates": [
          51.5148,
          35.75
        ]
      },
      "properties": {
        "title": "Appeal \u2014 Tehran, Tehran, Iran",
        "date": "20260803",
        "score": 2.778,
        "mentions": 300,
        "actors": "AMERICAN, BRITAIN, COMMENTATOR, CROWN PRINCE, DJIBOUTI, EBRAHIM AZIZI, EGYPT, EUROPEAN",
        "headline": "Trump says new round of Iran talks will begin Monday",
        "synopsis": "AMERICAN and BRITAIN \u2014 appeal (engaging in cooperation) reported near Tehran, Tehran, Iran, covered by 99 source(s) across 300 mentions.",
        "sources": [
          "https://dominicanrepublicpost.com/trump-says-new-round-of-iran-talks-will-begin-monday/",
          "http://www.israelherald.com/news/279220058/mediators-seek-to-revive-us-iran-deal-open-hormuz-for-60-days-without-fees-israeli-media",
          "https://www.yahoo.com/news/politics/articles/iran-denies-trumps-claim-that-new-talks-will-begin-on-monday-102911068.html"
        ]
      }
    },
    {
      "type": "Feature",
      "geometry": {
        "type": "Point",
        "coordinates": [
          37.6156,
          55.7522
        ]
      },
      "properties": {
        "title": "Fighting / clashes \u2014 Moscow, Moskva, Russia",
        "date": "20260803",
        "score": 2.692,
        "mentions": 272,
        "actors": "BLOGGER, BUCHAREST, CIVILIAN, COMPANY, EMBASSY, EMPLOYEE, FIREFIGHTER, INTELLIGENCE SERVICE",
        "headline": "Russian Embassy in Rome blames Ukraine for deadly restaurant bombing in Moscow",
        "synopsis": "BLOGGER and BUCHAREST \u2014 fighting / clashes (in conflict) reported near Moscow, Moskva, Russia, covered by 73 source(s) across 272 mentions.",
        "sources": [
          "https://abcnews.com/International/wireStory/russian-embassy-rome-blames-ukraine-deadly-italian-restaurant-135324989",
          "https://www.yahoo.com/news/world/articles/russian-embassy-italy-blames-kiev-114831875.html",
          "https://www.express.co.uk/news/world/2235403/nato-fighter-jets-scrambled-russia-attack-ww3-fears"
        ]
      }
    },
    {
      "type": "Feature",
      "geometry": {
        "type": "Point",
        "coordinates": [
          51.5148,
          35.75
        ]
      },
      "properties": {
        "title": "Consultation \u2014 Tehran, Tehran, Iran",
        "date": "20260803",
        "score": 2.735,
        "mentions": 289,
        "actors": "ABU DHABI, ANKARA, FOREIGN MINIST, IRAN, IRANIAN, ISRAEL, KUWAIT, MUSCAT",
        "headline": "Iran says it is in talks with Oman but not the US after Trump says negotiations to resume",
        "synopsis": "ABU DHABI and ANKARA \u2014 consultation (engaging in cooperation) reported near Tehran, Tehran, Iran, covered by 83 source(s) across 289 mentions.",
        "sources": [
          "https://www.bbc.com/news/articles/c23579jzv08o",
          "https://abc7chicago.com/post/us-iran-deal-news-donald-trump-says-he-will-order-halt-strikes-parameters-reached-end-war/19616566/",
          "https://english.news.cn/20260803/383aa52c9a4f46c4a940bf9b94ce1600/c.html"
        ]
      }
    },
    {
      "type": "Feature",
      "geometry": {
        "type": "Point",
        "coordinates": [
          51.5148,
          35.75
        ]
      },
      "properties": {
        "title": "Threat \u2014 Tehran, Tehran, Iran",
        "date": "20260803",
        "score": 2.688,
        "mentions": 277,
        "actors": "AMERICAN, AUTHORITIES, BULGARIA, BULGARIAN, CIVILIAN, COMMENTATOR, CROWN PRINCE, IRAN",
        "headline": "US Military Emails Troops for 'Creative' Ways to Punish Iran as It Appears to Run Out of Ideas",
        "synopsis": "AMERICAN and AUTHORITIES \u2014 threat (in conflict) reported near Tehran, Tehran, Iran, covered by 69 source(s) across 277 mentions.",
        "sources": [
          "https://www.ibtimes.co.uk/us-military-seeks-unconventional-strategies-pressure-iran-1812121",
          "https://sputnikglobe.com/20260803/ukraine-deliberately-attacked-iranian-vessel-in-caspian-sea---iranian-foreign-ministry-1124532334.html",
          "https://www.yahoo.com/news/politics/articles/trump-suggests-talks-iran-begin-001123068.html"
        ]
      }
    },
    {
      "type": "Feature",
      "geometry": {
        "type": "Point",
        "coordinates": [
          -77.0364,
          38.8951
        ]
      },
      "properties": {
        "title": "Consultation \u2014 Washington, District of Columbia, United States",
        "date": "20260803",
        "score": 2.707,
        "mentions": 261,
        "actors": "ADMINISTRATION, AMBASSADOR, BUSINESS LEADER, CALIFORNIA, COLLEGE, COMMUNITY, CONSTITUENT, DAR ES SALAAM",
        "headline": null,
        "synopsis": "ADMINISTRATION and AMBASSADOR \u2014 consultation (engaging in cooperation) reported near Washington, District of Columbia, United States, covered by 87 source(s) across 261 mentions.",
        "sources": [
          "https://600wrec.iheart.com/content/2026-08-03-trump-iran-talks-starting-today/",
          "https://www.insurancejournal.com/news/national/2026/08/03/879904.htm",
          "https://english.news.cn/20260803/2e4e6d354e1745dd8b0696e521ff0634/c.html"
        ]
      }
    },
    {
      "type": "Feature",
      "geometry": {
        "type": "Point",
        "coordinates": [
          77.2167,
          28.6667
        ]
      },
      "properties": {
        "title": "Protest \u2014 Delhi, Delhi, India",
        "date": "20260803",
        "score": 2.585,
        "mentions": 232,
        "actors": "ACTIVIST, AMIT, BANGLADESH, BANGLADESHI, BIHAR, CHENNAI, DELHI, DEMONSTRATOR",
        "headline": null,
        "synopsis": "ACTIVIST and AMIT \u2014 protest (in conflict) reported near Delhi, Delhi, India, covered by 54 source(s) across 232 mentions.",
        "sources": [
          "https://aninews.in/news/national/politics/congress-mp-randeep-surjewala-moves-rule-267-notice-in-rajya-sabha-over-alleged-ram-mandir-donation-theft20260803092834/",
          "https://timesofindia.indiatimes.com/entertainment/hindi/bollywood/news/sitting-in-ac-cars-giving-gyan-bhumi-pednekar-attracts-criticism-online-over-comments-on-pm-modi-abuse/articleshow/132819733.cms",
          "https://www.freepressjournal.in/education/student-protests-supreme-court-says-states-can-close-firs-limits-criminal-antecedents-to-grave-offences"
        ]
      }
    },
    {
      "type": "Feature",
      "geometry": {
        "type": "Point",
        "coordinates": [
          -0.116667,
          51.5
        ]
      },
      "properties": {
        "title": "Appeal \u2014 London, London, City of, United Kingdom",
        "date": "20260803",
        "score": 2.666,
        "mentions": 283,
        "actors": "ARIANA, AUSTRALIAN, BRITAIN, BRITISH, CARRIER, CITIGROUP, COMMUNITY, COMPANY",
        "headline": null,
        "synopsis": "ARIANA and AUSTRALIAN \u2014 appeal (engaging in cooperation) reported near London, London, City of, United Kingdom, covered by 58 source(s) across 283 mentions.",
        "sources": [
          "https://www.tickerreport.com/banking-finance/13528151/j-sainsburys-sbry-buy-rating-reaffirmed-at-deutsche-bank-aktiengesellschaft.html",
          "https://www.newsbiscuit.com/post/our-ministers-are-bears-in-disguise-admits-uk-government-1",
          "https://www.dailyrecord.co.uk/scotland-now/baby-pygmy-born-edinburgh-zoo-37508491"
        ]
      }
    },
    {
      "type": "Feature",
      "geometry": {
        "type": "Point",
        "coordinates": [
          30.5167,
          50.4333
        ]
      },
      "properties": {
        "title": "Fighting / clashes \u2014 Kyiv, Kyyiv, Misto, Ukraine",
        "date": "20260803",
        "score": 2.574,
        "mentions": 202,
        "actors": "BLOGGER, CARRIER, CIVILIAN, EMBASSY, EMPLOYEE, EXPORTER, FIGHTER, GOVERNOR",
        "headline": "Ukrainian attack on holiday-makers kills seven: Russia",
        "synopsis": "BLOGGER and CARRIER \u2014 fighting / clashes (in conflict) reported near Kyiv, Kyyiv, Misto, Ukraine, covered by 67 source(s) across 202 mentions.",
        "sources": [
          "https://www.yasstribune.com.au/story/9323190/ukrainian-attack-on-holiday-makers-kills-seven-russia/",
          "https://www.chronicle.lu/category/international-news/62721-female-bomber-kills-3-in-blast-near-moscow-restaurant",
          "https://news.antiwar.com/2026/08/02/ukrainian-drone-barrage-kills-at-least-six-in-russia-including-13-year-old-girl/"
        ]
      }
    },
    {
      "type": "Feature",
      "geometry": {
        "type": "Point",
        "coordinates": [
          34.3333,
          31.4167
        ]
      },
      "properties": {
        "title": "Diplomatic cooperation \u2014 Gaza, Israel (general), Israel",
        "date": "20260803",
        "score": 2.643,
        "mentions": 243,
        "actors": "ABU DHABI, ARMENIAN, BRITISH, CAIRO, CHILE, DEFENSE DEPARTMENT, EXTREMIST, FRENCH",
        "headline": null,
        "synopsis": "ABU DHABI and ARMENIAN \u2014 diplomatic cooperation (engaging in cooperation) reported near Gaza, Israel (general), Israel, covered by 69 source(s) across 243 mentions.",
        "sources": [
          "https://slguardian.org/leaked-documents-reveal-scope-of-alleged-israeli-arms-sales-to-united-arab-emirates/",
          "https://www.jpost.com/israel-news/politics-and-diplomacy/article-904443",
          "https://www.dailykos.com/stories/2026/8/2/800078954/community/netanyahu-is-bad-for-israel-and-bad-for-the-jews/"
        ]
      }
    },
    {
      "type": "Feature",
      "geometry": {
        "type": "Point",
        "coordinates": [
          34.3333,
          31.4167
        ]
      },
      "properties": {
        "title": "Threat \u2014 Gaza, Israel (general), Israel",
        "date": "20260803",
        "score": 2.546,
        "mentions": 207,
        "actors": "BUSINESS, COMMANDER, DOMINICAN REPUBLIC, EGYPT, GAZA, GOVERNMENT, HAMAS, IRAN",
        "headline": "Israel expresses concerns to US over Trump-backed Gaza framework",
        "synopsis": "BUSINESS and COMMANDER \u2014 threat (in conflict) reported near Gaza, Israel (general), Israel, covered by 54 source(s) across 207 mentions.",
        "sources": [
          "https://www.middle-east-online.com/en/israel-expresses-concerns-us-over-trump-backed-gaza-framework",
          "https://organiser.org/2026/08/03/373237/world/massive-attack-barred-from-singapore-for-palestinian-flag-display-conflict-should-not-disrupt-multicultural-city/",
          "https://www.newsx.com/world/israel-gaza-war-update-19-palestinians-killed-despite-trumps-new-ceasefire-plan-as-fresh-airstrikes-hit-gaza-256049/"
        ]
      }
    },
    {
      "type": "Feature",
      "geometry": {
        "type": "Point",
        "coordinates": [
          34.3333,
          31.4167
        ]
      },
      "properties": {
        "title": "Intent to cooperate \u2014 Gaza, Israel (general), Israel",
        "date": "20260803",
        "score": 2.59,
        "mentions": 231,
        "actors": "AUSTRALIAN, BELGIUM, EMBASSY, GAZA, GOVERNANCE, GOVERNMENT, HAMAS, IRAN",
        "headline": "Egyptian FM stresses de-escalation efforts in phone call with U.S. envoy-Xinhua",
        "synopsis": "AUSTRALIAN and BELGIUM \u2014 intent to cooperate (engaging in cooperation) reported near Gaza, Israel (general), Israel, covered by 56 source(s) across 231 mentions.",
        "sources": [
          "https://english.news.cn/africa/20260803/293924ba243b4e6aa718009b5f9813e6/c.html",
          "https://www.aol.co.uk/articles/trump-backs-down-iran-strikes-201650000.html",
          "http://www.israelherald.com/news/279217759/israeli-pressure-fails-to-sway-labor-on-gaza"
        ]
      }
    },
    {
      "type": "Feature",
      "geometry": {
        "type": "Point",
        "coordinates": [
          -77.0364,
          38.8951
        ]
      },
      "properties": {
        "title": "Fighting / clashes \u2014 Washington, District of Columbia, United States",
        "date": "20260803",
        "score": 2.544,
        "mentions": 202,
        "actors": "AFGHANISTAN, AIR FORCE, AIRCRAFT CARRIER, AMERICAN, APPELLATE COURT, ARMY, ATHENS, CANADA",
        "headline": "Wildfires Rage in Greece as Heat Wave Grips Europe",
        "synopsis": "AFGHANISTAN and AIR FORCE \u2014 fighting / clashes (in conflict) reported near Washington, District of Columbia, United States, covered by 56 source(s) across 202 mentions.",
        "sources": [
          "https://www.democracynow.org/2026/8/3/headlines/wildfires_rage_in_greece_as_heat_wave_grips_europe",
          "https://www.thedailybeast.com/pentagon-pleads-for-help-with-trumps-iran-war-crisis-by-asking-troops-for-input-on-decision-making/",
          "https://sputnikglobe.com/20260803/irgc-claims-shot-down-us-mq-9-drone-in-strait-of-hormuz-1124532488.html"
        ]
      }
    },
    {
      "type": "Feature",
      "geometry": {
        "type": "Point",
        "coordinates": [
          51.5148,
          35.75
        ]
      },
      "properties": {
        "title": "Intent to cooperate \u2014 Tehran, Tehran, Iran",
        "date": "20260803",
        "score": 2.587,
        "mentions": 240,
        "actors": "AMBASSADOR, CHINA, COMPANIES, DEPUTY, DOHA, HASSAN, IRAN, IRANIAN",
        "headline": "Details of US preparations for new strike on Iran revealed: Operation involving Israel called off at last minute",
        "synopsis": "AMBASSADOR and CHINA \u2014 intent to cooperate (engaging in cooperation) reported near Tehran, Tehran, Iran, covered by 51 source(s) across 240 mentions.",
        "sources": [
          "https://news.am/en/news/1053106",
          "https://www.cnn.com/2026/08/03/business/ai-data-centers-iran-war-oil",
          "https://investinglive.com/news/iran-foreign-ministry-spokesperson-says-no-plan-for-a-delegation-on-talks-with-the-us-in-the-coming-days/"
        ]
      }
    },
    {
      "type": "Feature",
      "geometry": {
        "type": "Point",
        "coordinates": [
          23.7333,
          37.9833
        ]
      },
      "properties": {
        "title": "Fighting / clashes \u2014 Athens, Attik\u00edR, Greece",
        "date": "20260803",
        "score": 2.509,
        "mentions": 221,
        "actors": "AFGHAN, ATHENS, AUSTRALIA, AUSTRALIAN, BANGKOK, BRITISH, CYPRUS, FIREFIGHTER",
        "headline": "2 dead, 2 survive after firefighting helicopters collide in Greece-Xinhua",
        "synopsis": "AFGHAN and ATHENS \u2014 fighting / clashes (in conflict) reported near Athens, Attik\u00edR, Greece, covered by 38 source(s) across 221 mentions.",
        "sources": [
          "https://english.news.cn/20260803/5965d4a411d54adda53eb58ea1d5b6d2/c.html",
          "https://www.ynetnews.com/article/s1n8zatsfx",
          "https://www.bangkokpost.com/world/3295837/water-bombers-take-to-skies-as-greece-battles-wildfires"
        ]
      }
    },
    {
      "type": "Feature",
      "geometry": {
        "type": "Point",
        "coordinates": [
          -0.116667,
          51.5
        ]
      },
      "properties": {
        "title": "Diplomatic cooperation \u2014 London, London, City of, United Kingdom",
        "date": "20260803",
        "score": 2.514,
        "mentions": 196,
        "actors": "A US, ACTOR, ADMINISTRATION, ARIANA, ASEAN, BETI, BRITISH, CABINET",
        "headline": "LGBT+ charity urges MPs to act fast on conversion therapy ban after years of abuse",
        "synopsis": "A US and ACTOR \u2014 diplomatic cooperation (engaging in cooperation) reported near London, London, City of, United Kingdom, covered by 50 source(s) across 196 mentions.",
        "sources": [
          "https://www.mirror.co.uk/news/uk-news/draft-bill-conversion-therapy-ban-37506787",
          "https://www.dailyrecord.co.uk/news/politics/nicola-sturgeon-irritating-back-seat-37508211",
          "https://www.manilatimes.net/2026/08/03/tmt-newswire/globenewswire/cxo-summit-opens-sponsorship-opportunities-for-enterprise-leaders/2396875"
        ]
      }
    },
    {
      "type": "Feature",
      "geometry": {
        "type": "Point",
        "coordinates": [
          -77.0364,
          38.8951
        ]
      },
      "properties": {
        "title": "Demand \u2014 Washington, District of Columbia, United States",
        "date": "20260803",
        "score": 2.453,
        "mentions": 175,
        "actors": "AIR FORCE, ALEXANDRIA, AMERICAN, ATTORNEY, COMMUNITY, CONGRESS, CROWN PRINCE, EMPLOYEE",
        "headline": "Bedbugs, bad Wi-Fi: Federal workers say forced summer relocations have been chaos",
        "synopsis": "AIR FORCE and ALEXANDRIA \u2014 demand (in conflict) reported near Washington, District of Columbia, United States, covered by 44 source(s) across 175 mentions.",
        "sources": [
          "https://www.ualrpublicradio.org/npr-news/2026-08-03/bedbugs-bad-wi-fi-federal-workers-say-forced-summer-relocations-have-been-chaos",
          "https://www.wgow.com/2026/08/03/spokane-wildfires-force-60000-residents-to-evacuate/",
          "https://targetednews.com/pr_disp.php?pr_id=9695476"
        ]
      }
    },
    {
      "type": "Feature",
      "geometry": {
        "type": "Point",
        "coordinates": [
          77.2,
          28.6
        ]
      },
      "properties": {
        "title": "Diplomatic cooperation \u2014 New Delhi, Delhi, India",
        "date": "20260803",
        "score": 2.513,
        "mentions": 221,
        "actors": "AMBASSADOR, BUSINESS, CHINA, COMMANDER, FARMER, FRANCE, FRANKFURT, FRENCH",
        "headline": null,
        "synopsis": "AMBASSADOR and BUSINESS \u2014 diplomatic cooperation (engaging in cooperation) reported near New Delhi, Delhi, India, covered by 39 source(s) across 221 mentions.",
        "sources": [
          "https://aninews.in/news/business/sidbis-direct-msme-lending-surges-nearly-four-fold-in-five-years-govt20260803131341/",
          "http://www.asiabulletin.com/news/279220482/mea-joint-secy-vishwesh-negi-appointed-as-next-indian-ambassador-to-iran",
          "https://aninews.in/news/business/bharat-electronics-limited-esri-india-sign-mou-to-develop-gis-geoai-solutions-for-indias-defence-sector20260803192105/"
        ]
      }
    }
  ]
}