{
  "type": "FeatureCollection",
  "features": [
    {
      "type": "Feature",
      "geometry": {
        "type": "Point",
        "coordinates": [
          51.5148,
          35.75
        ]
      },
      "properties": {
        "title": "Fighting / clashes \u2014 Tehran, Tehran, Iran",
        "date": "20260730",
        "score": 3.296,
        "mentions": 793,
        "actors": "A US, ADMINISTRATION, ADVOCATE, AFRICA, AMERICAN, AMERICAN TROOPS, ARMED FORCES, AZERBAIJAN",
        "headline": "U.S. forces launch new strikes on Iran as conflict widens-Xinhua",
        "synopsis": "A US and ADMINISTRATION \u2014 fighting / clashes (in conflict) reported near Tehran, Tehran, Iran, covered by 242 source(s) across 793 mentions.",
        "sources": [
          "https://english.news.cn/northamerica/20260730/f5097baaec6f473d8f4c18146ec86dc0/c.html",
          "https://www.thehindu.com/news/morning-digest-july-30-2026/article71283391.ece",
          "https://www.westernadvocate.com.au/story/9320404/us-bombards-iran-as-widening-war-engulfs-more-countries/"
        ]
      }
    },
    {
      "type": "Feature",
      "geometry": {
        "type": "Point",
        "coordinates": [
          -77.0364,
          38.8951
        ]
      },
      "properties": {
        "title": "Diplomatic cooperation \u2014 Washington, District of Columbia, United States",
        "date": "20260730",
        "score": 3.129,
        "mentions": 564,
        "actors": "ADMINISTRATION, AIRLINE, AMERICAN, ARMED FORCES, ATTORNEY, ATTORNEY GENERAL, BOSS, BRITAIN",
        "headline": "The Sound of Silence: Fauci Takes the Fifth and the Heat Over his Diary Disclosures",
        "synopsis": "ADMINISTRATION and AIRLINE \u2014 diplomatic cooperation (engaging in cooperation) reported near Washington, District of Columbia, United States, covered by 184 source(s) across 564 mentions.",
        "sources": [
          "https://jonathanturley.org/2026/07/30/the-sound-of-silence-fauci-takes-the-fifth-amid-outrage-over-his-diary-disclosures/comment-page-1/",
          "https://blackamericaweb.com/2026/07/29/trumps-reflecting-pool-vandal-story-collapses-in-court/",
          "https://www.stcatharinesstandard.ca/opinion/columnists/trumps-white-house-is-spinning-a-wild-conspiracy-tale-about-this-country-canada-needs-to-step-in-to-defend-it/article_095f6840-af28-5461-9c93-9e65631b8c8e.html"
        ]
      }
    },
    {
      "type": "Feature",
      "geometry": {
        "type": "Point",
        "coordinates": [
          -77.0364,
          38.8951
        ]
      },
      "properties": {
        "title": "Fighting / clashes \u2014 Washington, District of Columbia, United States",
        "date": "20260730",
        "score": 3.117,
        "mentions": 590,
        "actors": "A US, ADMINISTRATION, ADVOCATE, AIR FORCE, AMERICAN, AMERICAN TROOPS, ARMY, ATTORNEY GENERAL",
        "headline": "US and Iran trade missile barrages as hopes dim for a quick resolution to the five-month conflict",
        "synopsis": "A US and ADMINISTRATION \u2014 fighting / clashes (in conflict) reported near Washington, District of Columbia, United States, covered by 157 source(s) across 590 mentions.",
        "sources": [
          "https://www.newsday.com/news/nation/iran-war-us-hormuz-strait-july-30-2026-n70550",
          "https://www.fox7austin.com/news/judge-interview-suspect-tupac-shakur-murder-trial",
          "http://www.heraldglobe.com/news/279215644/us-bombs-iran-after-trump-vows-to-beat-the-fing-st-out-of-them"
        ]
      }
    },
    {
      "type": "Feature",
      "geometry": {
        "type": "Point",
        "coordinates": [
          -77.0364,
          38.8951
        ]
      },
      "properties": {
        "title": "Intent to cooperate \u2014 Washington, District of Columbia, United States",
        "date": "20260730",
        "score": 3.047,
        "mentions": 532,
        "actors": "A US, ADMINISTRATION, AMERICAN, BANGLADESH, BEIJING, BRUSSELS, CHAMBER, CHAMBER OF COMMERCE",
        "headline": "International Paper Company Slips To Net Loss From Continuing Operations In Q2",
        "synopsis": "A US and ADMINISTRATION \u2014 intent to cooperate (engaging in cooperation) reported near Washington, District of Columbia, United States, covered by 129 source(s) across 532 mentions.",
        "sources": [
          "https://www.finanznachrichten.de/nachrichten-2026-07/69171606-international-paper-company-slips-to-net-loss-from-continuing-operations-in-q2-020.htm",
          "https://ktrh.iheart.com/featured/operation-stormwatch-houston-texas/content/2026-07-29-more-proof-that-the-deep-state-is-alive-and-well/",
          "http://www.reflector.com/features/local/july-30-community-news/article_5303ea38-40ce-4650-a883-b2f9b34611f7.html"
        ]
      }
    },
    {
      "type": "Feature",
      "geometry": {
        "type": "Point",
        "coordinates": [
          34.3333,
          31.4167
        ]
      },
      "properties": {
        "title": "Fighting / clashes \u2014 Gaza, Israel (general), Israel",
        "date": "20260730",
        "score": 3.039,
        "mentions": 503,
        "actors": "ABDULLAH, AL JAZEERA, AMERICAN, AUSTRALIA, BUSINESS, CITIZEN, CIVILIAN, DISPLACED PEOPLE",
        "headline": "Israeli Army Kills Three Palestinians, Injures Dozens In Gaza",
        "synopsis": "ABDULLAH and AL JAZEERA \u2014 fighting / clashes (in conflict) reported near Gaza, Israel (general), Israel, covered by 138 source(s) across 503 mentions.",
        "sources": [
          "https://imemc.org/article/israeli-army-kills-three-palestinians-injures-dozens-in-gaza/",
          "https://www.thenewhumanitarian.org/first-person/2026/07/30/my-students-are-studying-english-gaza-have-chance-leave",
          "https://www.islamicinvitationturkey.com/zionist-airstrikes-kill-three-palestinians-including-two-children-in-gaza/"
        ]
      }
    },
    {
      "type": "Feature",
      "geometry": {
        "type": "Point",
        "coordinates": [
          -77.0364,
          38.8951
        ]
      },
      "properties": {
        "title": "Appeal \u2014 Washington, District of Columbia, United States",
        "date": "20260730",
        "score": 2.997,
        "mentions": 470,
        "actors": "ACCRA, ADMINISTRATION, AFGHAN, AFRICANS, AIRLINE, AMERICAN, ATTORNEY, AUSTRALIA",
        "headline": "Howard president defends university\u2019s unenrollment decisions, says more than 200 students have been re-enrolled",
        "synopsis": "ACCRA and ADMINISTRATION \u2014 appeal (engaging in cooperation) reported near Washington, District of Columbia, United States, covered by 124 source(s) across 470 mentions.",
        "sources": [
          "https://www.connectradio.fm/abc-national/howard-president-defends-universitys-unenrollment-decisions-says-more-than-200-students-have-been-re-enrolled/",
          "https://www.ynetnews.com/article/rke7bturzx",
          "https://www.foxnews.com/opinion/trump-tells-foreign-students-overstay-visa-face-consequences"
        ]
      }
    },
    {
      "type": "Feature",
      "geometry": {
        "type": "Point",
        "coordinates": [
          47.3506,
          35.4421
        ]
      },
      "properties": {
        "title": "Fighting / clashes \u2014 Qeshm, Kordestan, Iran",
        "date": "20260730",
        "score": 2.978,
        "mentions": 462,
        "actors": "AMERICAN, BRITISH, CAIRO, CHINA, CHINESE, CIVILIAN, DEPUTY, EGYPT",
        "headline": "US, Iran exchange new missile strikes as war expands across the Middle East",
        "synopsis": "AMERICAN and BRITISH \u2014 fighting / clashes (in conflict) reported near Qeshm, Kordestan, Iran, covered by 115 source(s) across 462 mentions.",
        "sources": [
          "https://komonews.com/news/nation-world/us-iran-exchange-new-missile-strikes-as-war-expands-across-the-middle-east-peace-kuwait-saudi-arabia-egypt-talks-negotiations-central-command-military-response-president-trump-strait-of-hormuz",
          "http://www.dailyadvance.com/news/world/the-us-and-iran-trade-missile-barrages-as-hopes-dim-for-a-quick-resolution/article_4f0fce0c-1307-5afe-9775-18b4c3732c54.html",
          "https://www.knopnews2.com/2026/07/29/iran-launches-renewed-missile-attacks-us-saudis-strike-tehran-backed-militias-iraq/"
        ]
      }
    },
    {
      "type": "Feature",
      "geometry": {
        "type": "Point",
        "coordinates": [
          -77.0364,
          38.8951
        ]
      },
      "properties": {
        "title": "Consultation \u2014 Washington, District of Columbia, United States",
        "date": "20260730",
        "score": 2.956,
        "mentions": 420,
        "actors": "ACTIVIST, ADMINISTRATION, AMERICAN, BANGLADESH, BOLIVIA, CHINA, CHRISTIAN, COMMANDER",
        "headline": "US launches new strikes on Iran after six days of calm as Trump signals escalation",
        "synopsis": "ACTIVIST and ADMINISTRATION \u2014 consultation (engaging in cooperation) reported near Washington, District of Columbia, United States, covered by 123 source(s) across 420 mentions.",
        "sources": [
          "https://www.ynetnews.com/article/hjgyfgobfl",
          "https://wtop.com/government/2026/07/blanche-nomination-at-risk-of-delay-as-senator-seeks-assurances-on-trump-settlement/",
          "https://www.forbes.com/sites/antoniopequenoiv/2026/07/29/biden-tapes-reveal-sensitive-talks-with-ghostwriter-heres-what-we-learned/"
        ]
      }
    },
    {
      "type": "Feature",
      "geometry": {
        "type": "Point",
        "coordinates": [
          37.6156,
          55.7522
        ]
      },
      "properties": {
        "title": "Fighting / clashes \u2014 Moscow, Moskva, Russia",
        "date": "20260730",
        "score": 2.952,
        "mentions": 397,
        "actors": "AIR FORCE, AMERICAN, BUSINESS, CHINESE, COMMANDER, COMPANY, EMPLOYEE, EUROPE",
        "headline": "Russian cruise missile crashes in Poland during massive strike on Ukraine",
        "synopsis": "AIR FORCE and AMERICAN \u2014 fighting / clashes (in conflict) reported near Moscow, Moskva, Russia, covered by 134 source(s) across 397 mentions.",
        "sources": [
          "https://londonlovesbusiness.com/russian-cruise-missile-crashes-in-poland-during-massive-strike-on-ukraine/",
          "https://www.theepochtimes.com/world/polish-police-find-debris-of-unidentified-object-amid-russian-strikes-on-ukraine-6069257",
          "https://naharnet.com/stories/en/321512-romania-shoots-down-stray-drones-from-ukraine-war-after-years-of-incursions"
        ]
      }
    },
    {
      "type": "Feature",
      "geometry": {
        "type": "Point",
        "coordinates": [
          -75.1638,
          39.9523
        ]
      },
      "properties": {
        "title": "Diplomatic cooperation \u2014 Philadelphia, Pennsylvania, United States",
        "date": "20260730",
        "score": 2.78,
        "mentions": 525,
        "actors": "ADVOCATE, APPEALS COURT, ATTORNEY, GOVERNOR, NEIGHBORHOOD, NEW JERSEY, NEWS ORGANIZATION, PHILADELPHIA",
        "headline": "Philadelphia charter school group\u2019s lawsuit: District\u2019s renewal process is \u2018coercive.\u2019",
        "synopsis": "ADVOCATE and APPEALS COURT \u2014 diplomatic cooperation (engaging in cooperation) reported near Philadelphia, Pennsylvania, United States, covered by 28 source(s) across 525 mentions.",
        "sources": [
          "https://www.chalkbeat.org/philadelphia/2026/05/14/charter-school-group-sues-district-over-renewal-process/",
          "https://www.chalkbeat.org/philadelphia/2026/05/18/congressional-campaign-highlights-school-building-funding-problems/",
          "https://www.chalkbeat.org/philadelphia/2026/06/11/why-several-philly-charter-schools-are-suing-over-renewal-decisions/"
        ]
      }
    },
    {
      "type": "Feature",
      "geometry": {
        "type": "Point",
        "coordinates": [
          51.5148,
          35.75
        ]
      },
      "properties": {
        "title": "Threat \u2014 Tehran, Tehran, Iran",
        "date": "20260730",
        "score": 2.899,
        "mentions": 421,
        "actors": "A US, ABADAN, AL HAQ, AMERICAN, AMERICAN TROOPS, BEIJING, CHINA, DEPUTY",
        "headline": null,
        "synopsis": "A US and ABADAN \u2014 threat (in conflict) reported near Tehran, Tehran, Iran, covered by 88 source(s) across 421 mentions.",
        "sources": [
          "https://www.westernadvocate.com.au/story/9320404/us-bombards-iran-as-widening-war-engulfs-more-countries/",
          "https://www.theyeshivaworld.com/news/general/2580618/strategy-divide-trump-frustrated-as-top-officials-clash-over-iran-war.html",
          "https://www.bankingnews.gr/diethni/articles/891297/shocking-analysis-by-russians-the-us-iran-war-could-last-decades-hormuz-a-powder-keg%20title="
        ]
      }
    },
    {
      "type": "Feature",
      "geometry": {
        "type": "Point",
        "coordinates": [
          -77.0364,
          38.8951
        ]
      },
      "properties": {
        "title": "Yield/concede \u2014 Washington, District of Columbia, United States",
        "date": "20260730",
        "score": 2.717,
        "mentions": 272,
        "actors": "ADMINISTRATION, AMERICAN, ATTORNEY GENERAL, BUSINESS, CONGRESS, DETECTIVE, FIREFIGHTER, GOOGLE",
        "headline": "Man airlifted after severe bee attack along Washington County highway",
        "synopsis": "ADMINISTRATION and AMERICAN \u2014 yield/concede (engaging in cooperation) reported near Washington, District of Columbia, United States, covered by 74 source(s) across 272 mentions.",
        "sources": [
          "https://www.kbtx.com/2026/07/30/man-airlifted-after-severe-bee-attack-along-washington-county-highway/",
          "https://www.fox5dc.com/news/person-interest-wanted-gwu-sexual-abuse-investigation",
          "https://www.coindesk.com/policy/2026/07/29/senators-said-to-strike-idea-to-toughen-trump-s-concession-on-clarity-act-s-crypto-limits"
        ]
      }
    },
    {
      "type": "Feature",
      "geometry": {
        "type": "Point",
        "coordinates": [
          30.5167,
          50.4333
        ]
      },
      "properties": {
        "title": "Fighting / clashes \u2014 Kyiv, Kyyiv, Misto, Ukraine",
        "date": "20260730",
        "score": 2.864,
        "mentions": 366,
        "actors": "ADMINISTRATION, AMERICAN, AUTHORITIES, AZERBAIJAN, BUSINESS, CARGO SHIP, CIVILIAN, FOREIGN MINIST",
        "headline": "Russia launches ballistic missile attack on Kyiv, officials report",
        "synopsis": "ADMINISTRATION and AMERICAN \u2014 fighting / clashes (in conflict) reported near Kyiv, Kyyiv, Misto, Ukraine, covered by 95 source(s) across 366 mentions.",
        "sources": [
          "https://www.foxnews.com/world/russia-launches-ballistic-missile-attack-kyiv-hours-after-zelenskyy-warns-major-strike",
          "https://home.nzcity.co.nz/news/article.aspx?id=450964&fm=psp,tst",
          "https://www.yahoo.com/news/world/articles/russian-drone-missile-strikes-ukraine-131504528.html"
        ]
      }
    },
    {
      "type": "Feature",
      "geometry": {
        "type": "Point",
        "coordinates": [
          51.5148,
          35.75
        ]
      },
      "properties": {
        "title": "Consultation \u2014 Tehran, Tehran, Iran",
        "date": "20260730",
        "score": 2.705,
        "mentions": 258,
        "actors": "ADMINISTRATION, CHINESE, COMPANY, DEFENSE MINIST, EGYPTIAN, ENVOY, IRAN, IRANIAN",
        "headline": "Iraq's balancing act gets harder as war between US and Iran widens",
        "synopsis": "ADMINISTRATION and CHINESE \u2014 consultation (engaging in cooperation) reported near Tehran, Tehran, Iran, covered by 77 source(s) across 258 mentions.",
        "sources": [
          "https://www.naharnet.com/stories/en/321554-iraq-s-balancing-act-gets-harder-as-war-between-us-and-iran-widens",
          "https://www.newsweek.com/trump-middle-east-iran-war-saudi-uae-nato-12263891",
          "https://www.wxii12.com/article/us-more-strikes-against-iran-a-new-stage-of-war/73303764"
        ]
      }
    },
    {
      "type": "Feature",
      "geometry": {
        "type": "Point",
        "coordinates": [
          -77.0364,
          38.8951
        ]
      },
      "properties": {
        "title": "Rejection \u2014 Washington, District of Columbia, United States",
        "date": "20260730",
        "score": 2.759,
        "mentions": 301,
        "actors": "ACTOR, ADMINISTRATION, AMERICAN, APPEALS COURT, ASEAN, ATTORNEY GENERAL, BANK, CANADIAN",
        "headline": "Gaining the Edge Reports Strong Post-Event Survey Results for Global Virtual Cap Intro 2026",
        "synopsis": "ACTOR and ADMINISTRATION \u2014 rejection (in conflict) reported near Washington, District of Columbia, United States, covered by 77 source(s) across 301 mentions.",
        "sources": [
          "https://www.finanznachrichten.de/nachrichten-2026-07/69172070-gaining-the-edge-reports-strong-post-event-survey-results-for-global-virtual-cap-intro-2026-200.htm",
          "https://natlawreview.com/article/gold-eagle-takes-flight-white-house-launches-ai-enabled-cybersecurity-clearinghouse",
          "https://www.bbc.co.uk/news/articles/c20dppq3y90o"
        ]
      }
    },
    {
      "type": "Feature",
      "geometry": {
        "type": "Point",
        "coordinates": [
          -77.0364,
          38.8951
        ]
      },
      "properties": {
        "title": "Aid \u2014 White House, District of Columbia, United States",
        "date": "20260730",
        "score": 2.692,
        "mentions": 253,
        "actors": "AIRLINE, ALABAMA, CALIFORNIA, CARRIER, CHINA, CHINESE, COLLEGE, CONGRESS",
        "headline": "Santa Cruz lifeguard recalls heroic rescue in new statement",
        "synopsis": "AIRLINE and ALABAMA \u2014 aid (engaging in cooperation) reported near White House, District of Columbia, United States, covered by 74 source(s) across 253 mentions.",
        "sources": [
          "https://www.ktvu.com/news/santa-cruz-lifeguard-recalls-heroic-rescue-new-statement",
          "https://www.14news.com/2026/07/30/henderson-police-cite-flock-camera-crime-solving-benefits-against-possible-funding-cuts/",
          "https://www.governing.com/workforce/the-surprising-places-where-immigrants-bolster-economies"
        ]
      }
    },
    {
      "type": "Feature",
      "geometry": {
        "type": "Point",
        "coordinates": [
          77.2167,
          28.6667
        ]
      },
      "properties": {
        "title": "Demand \u2014 Delhi, Delhi, India",
        "date": "20260730",
        "score": 2.678,
        "mentions": 287,
        "actors": "ACTIVIST, ADMINISTRATION, AMIT, AUTHORITIES, BANGLADESH, COLLEGE, COMMUNITY, CONGRESS",
        "headline": "AI on the streets: Indias protest surveillance sparks backlash",
        "synopsis": "ACTIVIST and ADMINISTRATION \u2014 demand (in conflict) reported near Delhi, Delhi, India, covered by 53 source(s) across 287 mentions.",
        "sources": [
          "http://www.indiagazette.com/news/279216277/ai-on-the-streets-indias-protest-surveillance-sparks-backlash",
          "https://www.oneindia.com/india/is-jantar-mantar-closed-for-protests-delhi-police-shoots-down-viral-claims-8161683.html",
          "https://www.legallyindia.com/convos/topic/490795-L-L-present-practice-pay-parity-salary-for-freshers-want-to-know-about-Bangalore-and-Delhi-office-"
        ]
      }
    },
    {
      "type": "Feature",
      "geometry": {
        "type": "Point",
        "coordinates": [
          -0.116667,
          51.5
        ]
      },
      "properties": {
        "title": "Intent to cooperate \u2014 London, London, City of, United Kingdom",
        "date": "20260730",
        "score": 2.603,
        "mentions": 240,
        "actors": "AFRICA, AIRLINE, BRITISH, BUSINESS, CANADA, CHIEF EXECUTIVE, COMPANY, DEFENCE SECRETARY",
        "headline": "Lloyds bets on AI to deliver \u00a32bn cost cuts as profits surge",
        "synopsis": "AFRICA and AIRLINE \u2014 intent to cooperate (engaging in cooperation) reported near London, London, City of, United Kingdom, covered by 49 source(s) across 240 mentions.",
        "sources": [
          "https://londonlovesbusiness.com/lloyds-bets-on-ai-to-deliver-2bn-cost-cuts-as-profits-surge/",
          "https://www.huffingtonpost.co.uk/entry/andy-burnham-nuclear-submarines-investment_uk_6a6aeb95e4b0fddbd7131053",
          "https://www.investegate.co.uk/announcement/rns/videndum--vid/notice-of-hy26-results/9695901"
        ]
      }
    },
    {
      "type": "Feature",
      "geometry": {
        "type": "Point",
        "coordinates": [
          77.2167,
          28.6667
        ]
      },
      "properties": {
        "title": "Protest \u2014 Delhi, Delhi, India",
        "date": "20260730",
        "score": 2.658,
        "mentions": 266,
        "actors": "AMIT, ARMED FORCES, COMPANY, CONGRESS, DELHI, EDUCATION MINIST, FARMER, HOME MINIST",
        "headline": null,
        "synopsis": "AMIT and ARMED FORCES \u2014 protest (in conflict) reported near Delhi, Delhi, India, covered by 55 source(s) across 266 mentions.",
        "sources": [
          "https://aninews.in/news/national/politics/yes-he-should-come-priyanka-gandhi-vadra-urges-hm-amit-shah-to-answer-opposition-in-lok-sabha20260730111512/",
          "https://theshillongtimes.com/2026/07/30/kapil-sibal-questions-home-ministers-silence-over-use-of-pellet-guns-during-students-stir/",
          "https://www.hindustantimes.com/india-news/delhi-bjp-protests-against-punjab-education-minister-demands-his-resignation-over-paper-leaks-101785395696556.html"
        ]
      }
    },
    {
      "type": "Feature",
      "geometry": {
        "type": "Point",
        "coordinates": [
          144.967,
          -37.8167
        ]
      },
      "properties": {
        "title": "Diplomatic cooperation \u2014 Melbourne, Victoria, Australia",
        "date": "20260730",
        "score": 2.582,
        "mentions": 224,
        "actors": "AUSTRALIA, AUSTRALIAN, AUTHORITIES, CAMBODIAN, COMMUNITY, GOVERNMENT, GREEK, HEALTH MINIST",
        "headline": "EU lays out $11.4 billion for 7 AI gigafactories as it aims to catch up with US and China",
        "synopsis": "AUSTRALIA and AUSTRALIAN \u2014 diplomatic cooperation (engaging in cooperation) reported near Melbourne, Victoria, Australia, covered by 50 source(s) across 224 mentions.",
        "sources": [
          "https://www.news4jax.com/business/2026/07/30/eu-lays-out-114-billion-for-7-ai-gigafactories-as-it-aims-to-catch-up-with-us-and-china/",
          "https://www.sconeadvocate.com.au/story/9321010/jacinta-allan-allies-to-quit-politics-after-labor-coup/",
          "https://www.hepburnadvocate.com.au/story/9320801/melbourne-water-flood-forecasting-role-transferred-to-bureau/"
        ]
      }
    },
    {
      "type": "Feature",
      "geometry": {
        "type": "Point",
        "coordinates": [
          -77.0364,
          38.8951
        ]
      },
      "properties": {
        "title": "Threat \u2014 Washington, District of Columbia, United States",
        "date": "20260730",
        "score": 2.633,
        "mentions": 250,
        "actors": "ADMINISTRATION, AMERICAN, ATTORNEY, CHINA, CIVILIAN, CORPORATION, FARMER, IRAN",
        "headline": "US and Iran trade missile barrages as hopes dim for a quick resolution to the five-month conflict",
        "synopsis": "ADMINISTRATION and AMERICAN \u2014 threat (in conflict) reported near Washington, District of Columbia, United States, covered by 54 source(s) across 250 mentions.",
        "sources": [
          "https://www.newsday.com/news/nation/iran-war-us-hormuz-strait-july-30-2026-n70550",
          "https://wtop.com/world/2026/07/jordan-says-it-intercepted-missiles-launched-from-iran/",
          "https://www.thedailyreview.com/opinion/columns_editorials/the-us-saudi-nuclear-agreement-further-erodes-international-safeguards/article_15ab1bf2-e607-41c5-9f33-bef15074b682.html"
        ]
      }
    },
    {
      "type": "Feature",
      "geometry": {
        "type": "Point",
        "coordinates": [
          -0.116667,
          51.5
        ]
      },
      "properties": {
        "title": "Diplomatic cooperation \u2014 London, London, City of, United Kingdom",
        "date": "20260730",
        "score": 2.582,
        "mentions": 253,
        "actors": "ACTOR, BRITAIN, BUSINESS, CATHOLIC, COLLEGE, COMMUNITY, COMPANY, FARMER",
        "headline": "Tom Holland praises wife Zendaya: \u2018No-one calms me down better than she does\u2019",
        "synopsis": "ACTOR and BRITAIN \u2014 diplomatic cooperation (engaging in cooperation) reported near London, London, City of, United Kingdom, covered by 39 source(s) across 253 mentions.",
        "sources": [
          "https://www.ledburyreporter.co.uk/news/national/26421548.tom-holland-praises-wife-zendaya-no-one-calms-better-does/",
          "https://www.finanznachrichten.de/nachrichten-2026-07/69172157-edison-investment-research-limited-edison-issues-report-on-primary-health-properties-php-023.htm",
          "https://www.investegate.co.uk/announcement/rns/oryx-international-growth-fund-ltd---oig/director-pdmr-shareholding/9696611"
        ]
      }
    },
    {
      "type": "Feature",
      "geometry": {
        "type": "Point",
        "coordinates": [
          -77.0364,
          38.8951
        ]
      },
      "properties": {
        "title": "Coercion / seizure \u2014 Washington, District of Columbia, United States",
        "date": "20260730",
        "score": 2.628,
        "mentions": 240,
        "actors": "ADMINISTRATION, AFGHAN, ALABAMA, AMBASSADOR, ARCHBISHOP, ARKANSAS, AUTHORITIES, CHEYENNE",
        "headline": "Cocaine Valued at Roughly $20 Million Seized From Truck at US Border",
        "synopsis": "ADMINISTRATION and AFGHAN \u2014 coercion / seizure (in conflict) reported near Washington, District of Columbia, United States, covered by 57 source(s) across 240 mentions.",
        "sources": [
          "https://www.theepochtimes.com/us/cocaine-valued-at-roughly-20-million-seized-from-truck-at-us-border-6069285",
          "https://newrepublic.com/article/213586/free-speech-wars-college-campus-trump-republicans-won",
          "https://www.presstv.co.uk/Detail/2026/07/30/773352/Pentagon-hands-Lockheed-Martin-nearly--59-billion-deal-as-US-stockpiles-collapse-amid-war-on-Iran"
        ]
      }
    },
    {
      "type": "Feature",
      "geometry": {
        "type": "Point",
        "coordinates": [
          51.5148,
          35.75
        ]
      },
      "properties": {
        "title": "Diplomatic cooperation \u2014 Tehran, Tehran, Iran",
        "date": "20260730",
        "score": 2.576,
        "mentions": 201,
        "actors": "ADMINISTRATION, AMERICAN, CHINA, CHINESE, FOREIGN MINIST, INDONESIA, IRAN, IRANIAN",
        "headline": "Concerning Report: Iran To Receive Hundreds Of Chinese Shoulder-Fired Missile Systems",
        "synopsis": "ADMINISTRATION and AMERICAN \u2014 diplomatic cooperation (engaging in cooperation) reported near Tehran, Tehran, Iran, covered by 60 source(s) across 201 mentions.",
        "sources": [
          "https://www.theyeshivaworld.com/news/israel-news/2580207/concerning-report-iran-to-receive-hundreds-of-chinese-shoulder-fired-missile-systems.html",
          "https://www.dailymail.com/news/article-16015265/US-launches-fresh-round-intensive-airstrikes-Iran.html",
          "https://economictimes.indiatimes.com/news/international/world-news/pakistans-diplomatic-efforts-to-restore-us-iran-negotiations-amid-rising-tensions/articleshow/132739420.cms"
        ]
      }
    },
    {
      "type": "Feature",
      "geometry": {
        "type": "Point",
        "coordinates": [
          34.3333,
          31.4167
        ]
      },
      "properties": {
        "title": "Rejection \u2014 Gaza, Israel (general), Israel",
        "date": "20260730",
        "score": 2.594,
        "mentions": 234,
        "actors": "AMBASSADOR, AMERICAN, CHANCELLOR, CIVILIAN, CUBA, CUBAN, EGYPT, GAZA",
        "headline": "Israeli strikes kill at least four, including children, across Gaza Strip",
        "synopsis": "AMBASSADOR and AMERICAN \u2014 rejection (in conflict) reported near Gaza, Israel (general), Israel, covered by 49 source(s) across 234 mentions.",
        "sources": [
          "https://www.aljazeera.com/news/2026/7/30/israeli-strikes-kill-at-least-four-including-children-across-gaza-strip",
          "https://www.christianpost.com/voice/israel-us-and-the-judgment-of-god-on-iran.html",
          "http://www.jpost.com/american-politics/article-904136"
        ]
      }
    }
  ]
}