{
  "type": "FeatureCollection",
  "features": [
    {
      "type": "Feature",
      "geometry": {
        "type": "MultiPolygon",
        "coordinates": [[[[-71.120142549,41.26372146],[-71.119968548,41.2583204590001],[-71.06270753,41.259360461],[-71.0613495269999,41.2161504530001],[-71.061179527,41.2107494520001],[-71.061010526,41.2053484510001],[-71.068161529,41.2052204500001],[-71.0753135309999,41.2050914500001],[-71.0824655329999,41.20496245],[-71.0896175359999,41.20483245],[-71.0967685379999,41.2047024490001],[-71.1039205399999,41.2045724490001],[-71.10374754,41.1991714480001],[-71.10357454,41.1937694470001],[-71.1034015389999,41.188368446],[-71.103228539,41.182967445],[-71.103055539,41.177566444],[-71.102882538,41.172165443],[-71.1027105379999,41.166764442],[-71.102537538,41.161363441],[-71.095390535,41.161493441],[-71.088243533,41.1616234410001],[-71.081096531,41.161752441],[-71.073949528,41.161881442],[-71.0668025259999,41.162010442],[-71.0596555239999,41.1621384420001],[-71.0525085209999,41.162265442],[-71.045360519,41.162393443],[-71.045528519,41.167794444],[-71.04569652,41.173195445],[-71.038548517,41.1733224450001],[-71.031399515,41.1734484450001],[-71.024251513,41.173574445],[-71.01710251,41.173700446],[-71.009954508,41.1738254460001],[-71.002805506,41.1739494460001],[-70.9456144869999,41.174930448],[-70.944336484,41.13171744],[-70.9371924819999,41.13183744],[-70.93004848,41.1319574400001],[-70.922903478,41.1320764400001],[-70.915759475,41.1321964410001],[-70.9086144729999,41.1323144410001],[-70.901469471,41.132432441],[-70.894325468,41.132550441],[-70.887180466,41.1326674420001],[-70.8800354639999,41.1327844420001],[-70.8728914609999,41.132901442],[-70.865746459,41.133017442],[-70.858601457,41.1331324430001],[-70.851456454,41.1332474430001],[-70.8443114519999,41.1333624430001],[-70.83716645,41.1334764430001],[-70.830021447,41.133590444],[-70.829871447,41.1281884430001],[-70.8297214469999,41.1227864420001],[-70.829571446,41.1173844400001],[-70.829421446,41.111982439],[-70.8365634479999,41.111868439],[-70.8437064509999,41.111754439],[-70.850849453,41.111639439],[-70.8579914549999,41.1115244380001],[-70.8651344579999,41.1114094380001],[-70.87227646,41.1112934380001],[-70.879419462,41.111177438],[-70.8865614649999,41.1110604370001],[-70.893703467,41.1109434370001],[-70.900846469,41.1108254370001],[-70.9079884719999,41.110707437],[-70.915130474,41.1105884360001],[-70.914973473,41.1051874350001],[-70.914816473,41.0997854340001],[-70.9219574749999,41.099666434],[-70.929098478,41.099546434],[-70.928940477,41.094145433],[-70.928782477,41.0887434320001],[-70.9359224789999,41.0886234320001],[-70.943061482,41.088503431],[-70.942902481,41.08310143],[-70.942743481,41.0776994290001],[-70.949882483,41.077579429],[-70.957020486,41.077458429],[-70.964158488,41.0773364280001],[-70.97129749,41.077214428],[-70.9784354929999,41.0770924280001],[-70.985573495,41.076969428],[-70.9854114949999,41.071567427],[-70.985248494,41.066166426],[-70.992385497,41.066042425],[-70.999522499,41.0659194250001],[-71.0066595009999,41.065795425],[-71.013796503,41.0656704250001],[-71.0209335059999,41.065545424],[-71.028070508,41.0654204240001],[-71.03520751,41.0652944240001],[-71.042344513,41.065168424],[-71.049480515,41.065041423],[-71.0566175169999,41.0649144230001],[-71.06375452,41.064786423],[-71.070890522,41.064658423],[-71.071060522,41.0700594240001],[-71.0712295229999,41.0754614250001],[-71.071399523,41.0808624260001],[-71.0715695229999,41.0862634270001],[-71.071738524,41.091665428],[-71.071908524,41.0970664290001],[-71.0720785239999,41.10246743],[-71.072248525,41.107868431],[-71.072418525,41.113270432],[-71.079559527,41.1131414320001],[-71.08670153,41.1130124320001],[-71.0938435319999,41.1128824310001],[-71.100984534,41.112752431],[-71.108126537,41.112622431],[-71.1152685389999,41.1124914310001],[-71.122409541,41.11235943],[-71.129551544,41.1122274300001],[-71.1366925459999,41.1120954300001],[-71.143833548,41.1119624300001],[-71.150975551,41.1118294290001],[-71.158116553,41.1116964290001],[-71.165257555,41.1115624290001],[-71.172398557,41.1114274290001],[-71.17953956,41.1112924280001],[-71.1866805619999,41.1111574280001],[-71.193821564,41.1110214280001],[-71.200962567,41.1108854280001],[-71.200782566,41.1054844270001],[-71.200602566,41.100083426],[-71.200421566,41.094682424],[-71.2002415649999,41.089281423],[-71.2000615649999,41.083880422],[-71.1998805649999,41.078480421],[-71.199700564,41.07307942],[-71.206837567,41.0729424200001],[-71.213974569,41.0728054200001],[-71.214155569,41.0782064210001],[-71.2143375699999,41.0836074220001],[-71.221475572,41.0834694220001],[-71.228612574,41.083331421],[-71.2287955749999,41.0887324220001],[-71.228978575,41.0941334230001],[-71.236117577,41.0939954230001],[-71.24325558,41.093856423],[-71.250394582,41.093717423],[-71.257533584,41.0935774220001],[-71.257718585,41.098977424],[-71.257903585,41.104378425],[-71.2580885849999,41.109779426],[-71.258273586,41.115179427],[-71.258459586,41.120580428],[-71.2586445859999,41.125981429],[-71.251502584,41.126120429],[-71.244359582,41.1262604290001],[-71.2372175789999,41.12639943],[-71.230074577,41.12653743],[-71.222932575,41.12667643],[-71.2157895719999,41.12681343],[-71.20864757,41.1269504310001],[-71.201504568,41.127087431],[-71.194361565,41.1272244310001],[-71.187218563,41.127359431],[-71.180076561,41.127495432],[-71.1729335589999,41.127630432],[-71.1727555579999,41.122229431],[-71.1725765579999,41.11682843],[-71.165435556,41.1169634300001],[-71.158293553,41.1170974300001],[-71.1511515509999,41.1172304300001],[-71.144009549,41.1173634310001],[-71.144185549,41.1227654320001],[-71.1443615489999,41.128166433],[-71.1445375499999,41.133567434],[-71.1447135499999,41.138968435],[-71.14488955,41.144369436],[-71.145065551,41.149770437],[-71.152210553,41.149636437],[-71.159356555,41.1495024370001],[-71.1665015579999,41.149368436],[-71.17364656,41.149234436],[-71.180791562,41.149098436],[-71.187937565,41.148963436],[-71.195082567,41.148827435],[-71.2022275689999,41.1486904350001],[-71.2093725719999,41.1485544350001],[-71.216517574,41.1484164350001],[-71.223662576,41.1482794340001],[-71.2308065779999,41.148140434],[-71.2379515809999,41.148002434],[-71.245096583,41.147863434],[-71.252241585,41.1477234330001],[-71.259385588,41.1475834330001],[-71.259571588,41.1529844340001],[-71.259756588,41.1583844350001],[-71.2526115859999,41.1585244350001],[-71.245465584,41.158664436],[-71.245649584,41.164064437],[-71.245834585,41.169465438],[-71.238687582,41.1696044380001],[-71.2315395799999,41.1697434380001],[-71.2317235799999,41.1751444390001],[-71.231906581,41.1805444400001],[-71.224758578,41.180683441],[-71.217609576,41.180821441],[-71.217792576,41.186221442],[-71.2179745769999,41.191622443],[-71.2181565769999,41.1970234440001],[-71.2183395769999,41.2024244450001],[-71.2111885749999,41.2025614450001],[-71.2040375729999,41.202698446],[-71.2042185729999,41.2080994470001],[-71.204400573,41.213500448],[-71.197248571,41.213636448],[-71.1900965689999,41.213773448],[-71.1902765689999,41.219174449],[-71.19045657,41.22457445],[-71.1833035669999,41.2247104510001],[-71.1761495649999,41.2248464510001],[-71.1763295649999,41.2302474520001],[-71.1765085659999,41.2356474530001],[-71.169353563,41.2357824530001],[-71.162198561,41.2359174530001],[-71.162376561,41.2413184540001],[-71.162555562,41.2467194550001],[-71.162733562,41.257520458],[-71.162911562,41.257520458],[-71.1557545599999,41.257655458],[-71.1485975579999,41.257789458],[-71.148774558,41.263190459],[-71.148951558,41.26859046],[-71.141793556,41.26872446],[-71.1346345539999,41.268857461],[-71.134810554,41.274258462],[-71.134986555,41.279659463],[-71.127827552,41.279791463],[-71.12066755,41.279923463],[-71.1204925499999,41.274523462],[-71.1203175489999,41.269122461],[-71.120142549,41.26372146]]],[[[-71.285327603,41.276771457],[-71.292486606,41.2766294570001],[-71.292675606,41.2820294580001],[-71.292864606,41.2874294590001],[-71.2930536069999,41.2928304600001],[-71.293243607,41.2982304610001],[-71.2860826049999,41.298373462],[-71.278921602,41.2985154620001],[-71.2717605999999,41.298656462],[-71.264599598,41.298797462],[-71.264412597,41.293397461],[-71.2642255969999,41.28799746],[-71.271385599,41.2878554600001],[-71.278545602,41.2877144600001],[-71.278357601,41.2823134590001],[-71.2781696009999,41.2769134580001],[-71.285327603,41.276771457]]]]
      },
      "properties": {
        "type": "lease",
        "title": "Federal lease OCS-A 0486 (Revolution Wind, LLC)",
        "stat": "83,789 acres · leased 10/1/2013 · 25-year term",
        "description": "The BOEM-issued federal lease area under the Outer Continental Shelf Lands Act. Boundary pulled directly from BOEM's official Wind Lease Boundaries GIS service (Office of Renewable Energy Programs), filtered to LEASE_NUMBER = OCS-A 0486, COMPANY = Revolution Wind, LLC."
      }
    },
    {"type":"Feature","geometry":{"coordinates":[-71.17278,41.22592],"type":"Point"},"properties":{"type":"turbine","id":"B07","title":"Turbine B07","stat":"8-12 MW class","description":"One of 65 turbine positions in BOEM's official siting data for Revolution Wind (candidate set 1 of 3 on file; exact as-built micro-siting may vary slightly)."}},
    {"type":"Feature","geometry":{"coordinates":[-71.15083,41.22626],"type":"Point"},"properties":{"type":"turbine","id":"B08","title":"Turbine B08","stat":"8-12 MW class","description":"One of 65 turbine positions in BOEM's official siting data for Revolution Wind (candidate set 1 of 3 on file; exact as-built micro-siting may vary slightly)."}},
    {"type":"Feature","geometry":{"coordinates":[-71.12864,41.22673],"type":"Point"},"properties":{"type":"turbine","id":"B09","title":"Turbine B09","stat":"8-12 MW class","description":"One of 65 turbine positions in BOEM's official siting data for Revolution Wind (candidate set 1 of 3 on file; exact as-built micro-siting may vary slightly)."}},
    {"type":"Feature","geometry":{"coordinates":[-71.10670,41.22721],"type":"Point"},"properties":{"type":"turbine","id":"B10","title":"Turbine B10","stat":"8-12 MW class","description":"One of 65 turbine positions in BOEM's official siting data for Revolution Wind (candidate set 1 of 3 on file; exact as-built micro-siting may vary slightly)."}},
    {"type":"Feature","geometry":{"coordinates":[-71.08468,41.22755],"type":"Point"},"properties":{"type":"turbine","id":"B11","title":"Turbine B11","stat":"8-12 MW class","description":"One of 65 turbine positions in BOEM's official siting data for Revolution Wind (candidate set 1 of 3 on file; exact as-built micro-siting may vary slightly)."}},
    {"type":"Feature","geometry":{"coordinates":[-71.06272,41.22794],"type":"Point"},"properties":{"type":"turbine","id":"B12","title":"Turbine B12","stat":"8-12 MW class","description":"One of 65 turbine positions in BOEM's official siting data for Revolution Wind (candidate set 1 of 3 on file; exact as-built micro-siting may vary slightly)."}},
    {"type":"Feature","geometry":{"coordinates":[-71.19411,41.20881],"type":"Point"},"properties":{"type":"turbine","id":"B13","title":"Turbine B13","stat":"8-12 MW class","description":"One of 65 turbine positions in BOEM's official siting data for Revolution Wind (candidate set 1 of 3 on file; exact as-built micro-siting may vary slightly)."}},
    {"type":"Feature","geometry":{"coordinates":[-71.17226,41.20924],"type":"Point"},"properties":{"type":"turbine","id":"B14","title":"Turbine B14","stat":"8-12 MW class","description":"One of 65 turbine positions in BOEM's official siting data for Revolution Wind (candidate set 1 of 3 on file; exact as-built micro-siting may vary slightly)."}},
    {"type":"Feature","geometry":{"coordinates":[-71.10625,41.21048],"type":"Point"},"properties":{"type":"turbine","id":"B15","title":"Turbine B15","stat":"8-12 MW class","description":"One of 65 turbine positions in BOEM's official siting data for Revolution Wind (candidate set 1 of 3 on file; exact as-built micro-siting may vary slightly)."}},
    {"type":"Feature","geometry":{"coordinates":[-71.08419,41.21088],"type":"Point"},"properties":{"type":"turbine","id":"B16","title":"Turbine B16","stat":"8-12 MW class","description":"One of 65 turbine positions in BOEM's official siting data for Revolution Wind (candidate set 1 of 3 on file; exact as-built micro-siting may vary slightly)."}},
    {"type":"Feature","geometry":{"coordinates":[-71.06230,41.21127],"type":"Point"},"properties":{"type":"turbine","id":"B17","title":"Turbine B17","stat":"8-12 MW class","description":"One of 65 turbine positions in BOEM's official siting data for Revolution Wind (candidate set 1 of 3 on file; exact as-built micro-siting may vary slightly)."}},
    {"type":"Feature","geometry":{"coordinates":[-71.21573,41.19174],"type":"Point"},"properties":{"type":"turbine","id":"B18","title":"Turbine B18","stat":"8-12 MW class","description":"One of 65 turbine positions in BOEM's official siting data for Revolution Wind (candidate set 1 of 3 on file; exact as-built micro-siting may vary slightly)."}},
    {"type":"Feature","geometry":{"coordinates":[-71.19375,41.19216],"type":"Point"},"properties":{"type":"turbine","id":"B19","title":"Turbine B19","stat":"8-12 MW class","description":"One of 65 turbine positions in BOEM's official siting data for Revolution Wind (candidate set 1 of 3 on file; exact as-built micro-siting may vary slightly)."}},
    {"type":"Feature","geometry":{"coordinates":[-71.17171,41.19258],"type":"Point"},"properties":{"type":"turbine","id":"B20","title":"Turbine B20","stat":"8-12 MW class","description":"One of 65 turbine positions in BOEM's official siting data for Revolution Wind (candidate set 1 of 3 on file; exact as-built micro-siting may vary slightly)."}},
    {"type":"Feature","geometry":{"coordinates":[-71.14973,41.19299],"type":"Point"},"properties":{"type":"turbine","id":"B21","title":"Turbine B21","stat":"8-12 MW class","description":"One of 65 turbine positions in BOEM's official siting data for Revolution Wind (candidate set 1 of 3 on file; exact as-built micro-siting may vary slightly)."}},
    {"type":"Feature","geometry":{"coordinates":[-71.12766,41.19344],"type":"Point"},"properties":{"type":"turbine","id":"B22","title":"Turbine B22","stat":"8-12 MW class","description":"One of 65 turbine positions in BOEM's official siting data for Revolution Wind (candidate set 1 of 3 on file; exact as-built micro-siting may vary slightly)."}},
    {"type":"Feature","geometry":{"coordinates":[-71.10598,41.19376],"type":"Point"},"properties":{"type":"turbine","id":"B23","title":"Turbine B23","stat":"8-12 MW class","description":"One of 65 turbine positions in BOEM's official siting data for Revolution Wind (candidate set 1 of 3 on file; exact as-built micro-siting may vary slightly)."}},
    {"type":"Feature","geometry":{"coordinates":[-71.21534,41.17507],"type":"Point"},"properties":{"type":"turbine","id":"B24","title":"Turbine B24","stat":"8-12 MW class","description":"One of 65 turbine positions in BOEM's official siting data for Revolution Wind (candidate set 1 of 3 on file; exact as-built micro-siting may vary slightly)."}},
    {"type":"Feature","geometry":{"coordinates":[-71.19323,41.17549],"type":"Point"},"properties":{"type":"turbine","id":"B25","title":"Turbine B25","stat":"8-12 MW class","description":"One of 65 turbine positions in BOEM's official siting data for Revolution Wind (candidate set 1 of 3 on file; exact as-built micro-siting may vary slightly)."}},
    {"type":"Feature","geometry":{"coordinates":[-71.17126,41.17581],"type":"Point"},"properties":{"type":"turbine","id":"B26","title":"Turbine B26","stat":"8-12 MW class","description":"One of 65 turbine positions in BOEM's official siting data for Revolution Wind (candidate set 1 of 3 on file; exact as-built micro-siting may vary slightly)."}},
    {"type":"Feature","geometry":{"coordinates":[-71.14910,41.17645],"type":"Point"},"properties":{"type":"turbine","id":"B27","title":"Turbine B27","stat":"8-12 MW class","description":"One of 65 turbine positions in BOEM's official siting data for Revolution Wind (candidate set 1 of 3 on file; exact as-built micro-siting may vary slightly)."}},
    {"type":"Feature","geometry":{"coordinates":[-71.12704,41.17683],"type":"Point"},"properties":{"type":"turbine","id":"B28","title":"Turbine B28","stat":"8-12 MW class","description":"One of 65 turbine positions in BOEM's official siting data for Revolution Wind (candidate set 1 of 3 on file; exact as-built micro-siting may vary slightly)."}},
    {"type":"Feature","geometry":{"coordinates":[-71.10512,41.17721],"type":"Point"},"properties":{"type":"turbine","id":"B29","title":"Turbine B29","stat":"8-12 MW class","description":"One of 65 turbine positions in BOEM's official siting data for Revolution Wind (candidate set 1 of 3 on file; exact as-built micro-siting may vary slightly)."}},
    {"type":"Feature","geometry":{"coordinates":[-71.25884,41.15754],"type":"Point"},"properties":{"type":"turbine","id":"B30","title":"Turbine B30","stat":"8-12 MW class","description":"One of 65 turbine positions in BOEM's official siting data for Revolution Wind (candidate set 1 of 3 on file; exact as-built micro-siting may vary slightly)."}},
    {"type":"Feature","geometry":{"coordinates":[-71.23688,41.15785],"type":"Point"},"properties":{"type":"turbine","id":"B31","title":"Turbine B31","stat":"8-12 MW class","description":"One of 65 turbine positions in BOEM's official siting data for Revolution Wind (candidate set 1 of 3 on file; exact as-built micro-siting may vary slightly)."}},
    {"type":"Feature","geometry":{"coordinates":[-71.21494,41.15838],"type":"Point"},"properties":{"type":"turbine","id":"B32","title":"Turbine B32","stat":"8-12 MW class","description":"One of 65 turbine positions in BOEM's official siting data for Revolution Wind (candidate set 1 of 3 on file; exact as-built micro-siting may vary slightly)."}},
    {"type":"Feature","geometry":{"coordinates":[-71.19129,41.15882],"type":"Point"},"properties":{"type":"turbine","id":"B33","title":"Turbine B33","stat":"8-12 MW class","description":"One of 65 turbine positions in BOEM's official siting data for Revolution Wind (candidate set 1 of 3 on file; exact as-built micro-siting may vary slightly)."}},
    {"type":"Feature","geometry":{"coordinates":[-71.17072,41.15938],"type":"Point"},"properties":{"type":"turbine","id":"B34","title":"Turbine B34","stat":"8-12 MW class","description":"One of 65 turbine positions in BOEM's official siting data for Revolution Wind (candidate set 1 of 3 on file; exact as-built micro-siting may vary slightly)."}},
    {"type":"Feature","geometry":{"coordinates":[-71.14865,41.15965],"type":"Point"},"properties":{"type":"turbine","id":"B35","title":"Turbine B35","stat":"8-12 MW class","description":"One of 65 turbine positions in BOEM's official siting data for Revolution Wind (candidate set 1 of 3 on file; exact as-built micro-siting may vary slightly)."}},
    {"type":"Feature","geometry":{"coordinates":[-71.12687,41.16007],"type":"Point"},"properties":{"type":"turbine","id":"B36","title":"Turbine B36","stat":"8-12 MW class","description":"One of 65 turbine positions in BOEM's official siting data for Revolution Wind (candidate set 1 of 3 on file; exact as-built micro-siting may vary slightly)."}},
    {"type":"Feature","geometry":{"coordinates":[-71.10531,41.16056],"type":"Point"},"properties":{"type":"turbine","id":"B37","title":"Turbine B37","stat":"8-12 MW class","description":"One of 65 turbine positions in BOEM's official siting data for Revolution Wind (candidate set 1 of 3 on file; exact as-built micro-siting may vary slightly)."}},
    {"type":"Feature","geometry":{"coordinates":[-71.08249,41.16065],"type":"Point"},"properties":{"type":"turbine","id":"B38","title":"Turbine B38","stat":"8-12 MW class","description":"One of 65 turbine positions in BOEM's official siting data for Revolution Wind (candidate set 1 of 3 on file; exact as-built micro-siting may vary slightly)."}},
    {"type":"Feature","geometry":{"coordinates":[-71.06028,41.16125],"type":"Point"},"properties":{"type":"turbine","id":"B39","title":"Turbine B39","stat":"8-12 MW class","description":"One of 65 turbine positions in BOEM's official siting data for Revolution Wind (candidate set 1 of 3 on file; exact as-built micro-siting may vary slightly)."}},
    {"type":"Feature","geometry":{"coordinates":[-71.03829,41.16160],"type":"Point"},"properties":{"type":"turbine","id":"B40","title":"Turbine B40","stat":"8-12 MW class","description":"One of 65 turbine positions in BOEM's official siting data for Revolution Wind (candidate set 1 of 3 on file; exact as-built micro-siting may vary slightly)."}},
    {"type":"Feature","geometry":{"coordinates":[-71.01590,41.16228],"type":"Point"},"properties":{"type":"turbine","id":"B41","title":"Turbine B41","stat":"8-12 MW class","description":"One of 65 turbine positions in BOEM's official siting data for Revolution Wind (candidate set 1 of 3 on file; exact as-built micro-siting may vary slightly)."}},
    {"type":"Feature","geometry":{"coordinates":[-70.99423,41.16248],"type":"Point"},"properties":{"type":"turbine","id":"B42","title":"Turbine B42","stat":"8-12 MW class","description":"One of 65 turbine positions in BOEM's official siting data for Revolution Wind (candidate set 1 of 3 on file; exact as-built micro-siting may vary slightly)."}},
    {"type":"Feature","geometry":{"coordinates":[-70.97279,41.16263],"type":"Point"},"properties":{"type":"turbine","id":"B43","title":"Turbine B43","stat":"8-12 MW class","description":"One of 65 turbine positions in BOEM's official siting data for Revolution Wind (candidate set 1 of 3 on file; exact as-built micro-siting may vary slightly)."}},
    {"type":"Feature","geometry":{"coordinates":[-71.08226,41.14424],"type":"Point"},"properties":{"type":"turbine","id":"B46","title":"Turbine B46","stat":"8-12 MW class","description":"One of 65 turbine positions in BOEM's official siting data for Revolution Wind (candidate set 1 of 3 on file; exact as-built micro-siting may vary slightly)."}},
    {"type":"Feature","geometry":{"coordinates":[-71.03766,41.14499],"type":"Point"},"properties":{"type":"turbine","id":"B47","title":"Turbine B47","stat":"8-12 MW class","description":"One of 65 turbine positions in BOEM's official siting data for Revolution Wind (candidate set 1 of 3 on file; exact as-built micro-siting may vary slightly)."}},
    {"type":"Feature","geometry":{"coordinates":[-71.08066,41.12755],"type":"Point"},"properties":{"type":"turbine","id":"B50","title":"Turbine B50","stat":"8-12 MW class","description":"One of 65 turbine positions in BOEM's official siting data for Revolution Wind (candidate set 1 of 3 on file; exact as-built micro-siting may vary slightly)."}},
    {"type":"Feature","geometry":{"coordinates":[-71.03706,41.12753],"type":"Point"},"properties":{"type":"turbine","id":"B51","title":"Turbine B51","stat":"8-12 MW class","description":"One of 65 turbine positions in BOEM's official siting data for Revolution Wind (candidate set 1 of 3 on file; exact as-built micro-siting may vary slightly)."}},
    {"type":"Feature","geometry":{"coordinates":[-70.90500,41.13057],"type":"Point"},"properties":{"type":"turbine","id":"B55","title":"Turbine B55","stat":"8-12 MW class","description":"One of 65 turbine positions in BOEM's official siting data for Revolution Wind (candidate set 1 of 3 on file; exact as-built micro-siting may vary slightly)."}},
    {"type":"Feature","geometry":{"coordinates":[-70.88281,41.13094],"type":"Point"},"properties":{"type":"turbine","id":"B56","title":"Turbine B56","stat":"8-12 MW class","description":"One of 65 turbine positions in BOEM's official siting data for Revolution Wind (candidate set 1 of 3 on file; exact as-built micro-siting may vary slightly)."}},
    {"type":"Feature","geometry":{"coordinates":[-70.86085,41.13127],"type":"Point"},"properties":{"type":"turbine","id":"B57","title":"Turbine B57","stat":"8-12 MW class","description":"One of 65 turbine positions in BOEM's official siting data for Revolution Wind (candidate set 1 of 3 on file; exact as-built micro-siting may vary slightly)."}},
    {"type":"Feature","geometry":{"coordinates":[-70.83978,41.13145],"type":"Point"},"properties":{"type":"turbine","id":"B58","title":"Turbine B58","stat":"8-12 MW class","description":"One of 65 turbine positions in BOEM's official siting data for Revolution Wind (candidate set 1 of 3 on file; exact as-built micro-siting may vary slightly)."}},
    {"type":"Feature","geometry":{"coordinates":[-71.05912,41.11111],"type":"Point"},"properties":{"type":"turbine","id":"B59","title":"Turbine B59","stat":"8-12 MW class","description":"One of 65 turbine positions in BOEM's official siting data for Revolution Wind (candidate set 1 of 3 on file; exact as-built micro-siting may vary slightly)."}},
    {"type":"Feature","geometry":{"coordinates":[-71.03753,41.11134],"type":"Point"},"properties":{"type":"turbine","id":"B60","title":"Turbine B60","stat":"8-12 MW class","description":"One of 65 turbine positions in BOEM's official siting data for Revolution Wind (candidate set 1 of 3 on file; exact as-built micro-siting may vary slightly)."}},
    {"type":"Feature","geometry":{"coordinates":[-70.99279,41.11176],"type":"Point"},"properties":{"type":"turbine","id":"B61","title":"Turbine B61","stat":"8-12 MW class","description":"One of 65 turbine positions in BOEM's official siting data for Revolution Wind (candidate set 1 of 3 on file; exact as-built micro-siting may vary slightly)."}},
    {"type":"Feature","geometry":{"coordinates":[-70.92691,41.11328],"type":"Point"},"properties":{"type":"turbine","id":"B63","title":"Turbine B63","stat":"8-12 MW class","description":"One of 65 turbine positions in BOEM's official siting data for Revolution Wind (candidate set 1 of 3 on file; exact as-built micro-siting may vary slightly)."}},
    {"type":"Feature","geometry":{"coordinates":[-70.90453,41.11390],"type":"Point"},"properties":{"type":"turbine","id":"B64","title":"Turbine B64","stat":"8-12 MW class","description":"One of 65 turbine positions in BOEM's official siting data for Revolution Wind (candidate set 1 of 3 on file; exact as-built micro-siting may vary slightly)."}},
    {"type":"Feature","geometry":{"coordinates":[-70.88228,41.11437],"type":"Point"},"properties":{"type":"turbine","id":"B65","title":"Turbine B65","stat":"8-12 MW class","description":"One of 65 turbine positions in BOEM's official siting data for Revolution Wind (candidate set 1 of 3 on file; exact as-built micro-siting may vary slightly)."}},
    {"type":"Feature","geometry":{"coordinates":[-70.86044,41.11462],"type":"Point"},"properties":{"type":"turbine","id":"B66","title":"Turbine B66","stat":"8-12 MW class","description":"One of 65 turbine positions in BOEM's official siting data for Revolution Wind (candidate set 1 of 3 on file; exact as-built micro-siting may vary slightly)."}},
    {"type":"Feature","geometry":{"coordinates":[-70.83875,41.11507],"type":"Point"},"properties":{"type":"turbine","id":"B67","title":"Turbine B67","stat":"8-12 MW class","description":"One of 65 turbine positions in BOEM's official siting data for Revolution Wind (candidate set 1 of 3 on file; exact as-built micro-siting may vary slightly)."}},
    {"type":"Feature","geometry":{"coordinates":[-71.05832,41.09445],"type":"Point"},"properties":{"type":"turbine","id":"B68","title":"Turbine B68","stat":"8-12 MW class","description":"One of 65 turbine positions in BOEM's official siting data for Revolution Wind (candidate set 1 of 3 on file; exact as-built micro-siting may vary slightly)."}},
    {"type":"Feature","geometry":{"coordinates":[-71.03530,41.09506],"type":"Point"},"properties":{"type":"turbine","id":"B69","title":"Turbine B69","stat":"8-12 MW class","description":"One of 65 turbine positions in BOEM's official siting data for Revolution Wind (candidate set 1 of 3 on file; exact as-built micro-siting may vary slightly)."}},
    {"type":"Feature","geometry":{"coordinates":[-71.01394,41.09459],"type":"Point"},"properties":{"type":"turbine","id":"B70","title":"Turbine B70","stat":"8-12 MW class","description":"One of 65 turbine positions in BOEM's official siting data for Revolution Wind (candidate set 1 of 3 on file; exact as-built micro-siting may vary slightly)."}},
    {"type":"Feature","geometry":{"coordinates":[-70.99229,41.09670],"type":"Point"},"properties":{"type":"turbine","id":"B71","title":"Turbine B71","stat":"8-12 MW class","description":"One of 65 turbine positions in BOEM's official siting data for Revolution Wind (candidate set 1 of 3 on file; exact as-built micro-siting may vary slightly)."}},
    {"type":"Feature","geometry":{"coordinates":[-70.97039,41.09602],"type":"Point"},"properties":{"type":"turbine","id":"B72","title":"Turbine B72","stat":"8-12 MW class","description":"One of 65 turbine positions in BOEM's official siting data for Revolution Wind (candidate set 1 of 3 on file; exact as-built micro-siting may vary slightly)."}},
    {"type":"Feature","geometry":{"coordinates":[-70.94852,41.09655],"type":"Point"},"properties":{"type":"turbine","id":"B73","title":"Turbine B73","stat":"8-12 MW class","description":"One of 65 turbine positions in BOEM's official siting data for Revolution Wind (candidate set 1 of 3 on file; exact as-built micro-siting may vary slightly)."}},
    {"type":"Feature","geometry":{"coordinates":[-71.05803,41.07785],"type":"Point"},"properties":{"type":"turbine","id":"B74","title":"Turbine B74","stat":"8-12 MW class","description":"One of 65 turbine positions in BOEM's official siting data for Revolution Wind (candidate set 1 of 3 on file; exact as-built micro-siting may vary slightly)."}},
    {"type":"Feature","geometry":{"coordinates":[-71.03574,41.07829],"type":"Point"},"properties":{"type":"turbine","id":"B75","title":"Turbine B75","stat":"8-12 MW class","description":"One of 65 turbine positions in BOEM's official siting data for Revolution Wind (candidate set 1 of 3 on file; exact as-built micro-siting may vary slightly)."}},
    {"type":"Feature","geometry":{"coordinates":[-71.01456,41.07885],"type":"Point"},"properties":{"type":"turbine","id":"B76","title":"Turbine B76","stat":"8-12 MW class","description":"One of 65 turbine positions in BOEM's official siting data for Revolution Wind (candidate set 1 of 3 on file; exact as-built micro-siting may vary slightly)."}},
    {"type":"Feature","geometry":{"coordinates":[-70.99038,41.07912],"type":"Point"},"properties":{"type":"turbine","id":"B77","title":"Turbine B77","stat":"8-12 MW class","description":"One of 65 turbine positions in BOEM's official siting data for Revolution Wind (candidate set 1 of 3 on file; exact as-built micro-siting may vary slightly)."}},
    {"type":"Feature","geometry":{"coordinates":[-70.96966,41.07944],"type":"Point"},"properties":{"type":"turbine","id":"B78","title":"Turbine B78","stat":"8-12 MW class","description":"One of 65 turbine positions in BOEM's official siting data for Revolution Wind (candidate set 1 of 3 on file; exact as-built micro-siting may vary slightly)."}},
    {"type":"Feature","geometry":{"coordinates":[-70.94764,41.07981],"type":"Point"},"properties":{"type":"turbine","id":"B79","title":"Turbine B79","stat":"8-12 MW class","description":"One of 65 turbine positions in BOEM's official siting data for Revolution Wind (candidate set 1 of 3 on file; exact as-built micro-siting may vary slightly)."}},
    {
      "type": "Feature",
      "geometry": { "type": "Point", "coordinates": [-71.12837, 41.21013] },
      "properties": {
        "type": "substation",
        "id": "AF08",
        "title": "Offshore substation AF08",
        "stat": "Offshore · 275 kV",
        "description": "One of two offshore substations BOEM lists for Revolution Wind, collecting power from the turbine strings before export to shore."
      }
    },
    {
      "type": "Feature",
      "geometry": { "type": "Point", "coordinates": [-71.05924, 41.12777] },
      "properties": {
        "type": "substation",
        "id": "AL11",
        "title": "Offshore substation AL11",
        "stat": "Offshore · 275 kV",
        "description": "The second of two offshore substations BOEM lists for Revolution Wind, linked to substation AF08 by an inter-substation cable before combined export to shore."
      }
    },
    {
      "type": "Feature",
      "geometry": {
        "type": "LineString",
        "coordinates": [[-71.42635,41.58612],[-71.41552,41.56957],[-71.40922,41.56547],[-71.40054,41.55072],[-71.39691,41.53096],[-71.39995,41.51890],[-71.40343,41.51560],[-71.40591,41.51269],[-71.40893,41.50161],[-71.41033,41.44355],[-71.40145,41.41974],[-71.39703,41.41562],[-71.39030,41.41405],[-71.37002,41.41595],[-71.36386,41.41430],[-71.35668,41.40635],[-71.33914,41.38416],[-71.33448,41.37908],[-71.32807,41.37659],[-71.26013,41.38150],[-71.24348,41.38242],[-71.23980,41.38176],[-71.23658,41.38027],[-71.23416,41.37809],[-71.23278,41.37545],[-71.23235,41.27176],[-71.23242,41.26219],[-71.23094,41.23082],[-71.22873,41.22755],[-71.22034,41.22130],[-71.21354,41.21865],[-71.20592,41.21791],[-71.13828,41.22035],[-71.13462,41.21870],[-71.12948,41.21217],[-71.12843,41.21019]]
      },
      "properties": {
        "type": "cable",
        "title": "Export cable to Quonset Point",
        "stat": "~39 miles · 275 kV (twin circuits)",
        "description": "One of two parallel 275kV export circuits BOEM lists running from offshore substation AF08 to the Quonset Point landfall. Route simplified from BOEM's official survey path (889 vertices) for map display; the true corridor also includes a near-identical second circuit."
      }
    },
    {
      "type": "Feature",
      "geometry": {
        "type": "LineString",
        "coordinates": [[-71.12827,41.21011],[-71.12244,41.20840],[-71.11360,41.19481],[-71.11267,41.19124],[-71.11464,41.15714],[-71.11325,41.15387],[-71.10785,41.14917],[-71.08601,41.14736],[-71.08261,41.14674],[-71.07973,41.14524],[-71.07777,41.14306],[-71.07386,41.13427],[-71.07184,41.13260],[-71.06484,41.13066],[-71.06203,41.12965],[-71.05932,41.12783]]
      },
      "properties": {
        "type": "cable",
        "title": "Inter-substation cable",
        "stat": "~8 miles · links AF08 ↔ AL11",
        "description": "The link between Revolution Wind's two offshore substations, per BOEM's official export-cable GIS data. Route simplified from the official survey path (291 vertices) for map display."
      }
    },
    {
      "type": "Feature",
      "geometry": { "type": "Point", "coordinates": [-71.42619, 41.58497] },
      "properties": {
        "type": "landfall",
        "title": "Quonset Point cable landfall",
        "stat": "North Kingstown, RI",
        "description": "Where Revolution Wind's export cables come ashore, per BOEM's official offshore landings GIS data. From here the cables run roughly a mile underground to a newly built substation."
      }
    }
  ]
}
