{"type":"FeatureCollection","features":[{"type":"Feature","properties":{"id":"cheyenne","name":"Cheyenne, Wyoming","label":"Cheyenne","status":"approved","position_source":"Census Gazetteer 2023 place centroid (Cheyenne city)"},"geometry":{"type":"Point","coordinates":[-104.7902,41.1273]}},{"type":"Feature","properties":{"id":"kline","name":"Kline Township, Pennsylvania","label":"Kline Twp.","status":"approved","position_source":"Census Gazetteer 2023 county subdivision centroid (Kline township, Schuylkill County)"},"geometry":{"type":"Point","coordinates":[-76.0504,40.8785]}},{"type":"Feature","properties":{"id":"lovejoy","name":"Lovejoy, Georgia","label":"Lovejoy","status":"blocked","position_source":"Census Gazetteer 2023 place centroid (Lovejoy city)"},"geometry":{"type":"Point","coordinates":[-84.3174,33.4415]}},{"type":"Feature","properties":{"id":"mercer","name":"E.W. Brown Generating Station, Mercer County, Kentucky","label":"E.W. Brown plant","status":"blocked","position_source":"OpenStreetMap way 449254194 (via Nominatim), centre of the plant's industrial area"},"geometry":{"type":"Point","coordinates":[-84.7123,37.7906]}},{"type":"Feature","properties":{"id":"palmsprings","name":"Palm Springs, California","label":"Palm Springs","status":"blocked","position_source":"Census Gazetteer 2023 place centroid (Palm Springs city)"},"geometry":{"type":"Point","coordinates":[-116.5383,33.8034]}}]}