{"type":"FeatureCollection","name":"lake-powell","features":[{"type":"Feature","properties":{"id":"state-NM","kind":"state","name":"New Mexico","usps":"NM","source":"Census cartographic boundary file cb_2023_us_state_500k (simplified to 0.01 deg)","division":"Upper Division","claim":"C14"},"geometry":{"type":"Polygon","coordinates":[[[-109.0502,31.48],[-109.0452,36.9991],[-103.0022,37.0001],[-103.0024,36.5004],[-103.0419,36.5004],[-103.0435,34.018],[-103.0646,32.9999],[-103.0644,32.0005],[-106.6185,32.0005],[-106.6395,31.9803],[-106.6196,31.9716],[-106.6297,31.9266],[-106.6118,31.92],[-106.6455,31.8987],[-106.6292,31.8837],[-106.6359,31.8662],[-106.602,31.8444],[-106.6027,31.825],[-106.5471,31.8073],[-106.5282,31.7831],[-108.2084,31.7836],[-108.2086,31.3334],[-109.05,31.3325],[-109.0502,31.48]]]}},{"type":"Feature","properties":{"id":"state-CA","kind":"state","name":"California","usps":"CA","source":"Census cartographic boundary file cb_2023_us_state_500k (simplified to 0.01 deg)","division":"Lower Division","claim":"C10","cut_af":440000,"new_af":3960000},"geometry":{"type":"MultiPolygon","coordinates":[[[[-118.6044,33.4786],[-118.5386,33.477],[-118.4974,33.442],[-118.4776,33.4484],[-118.3703,33.4093],[-118.3051,33.3103],[-118.3252,33.2991],[-118.3748,33.3201],[-118.4654,33.3261],[-118.4875,33.3509],[-118.4753,33.3832],[-118.4887,33.4198],[-118.5754,33.4402],[-118.6044,33.4786]]],[[[-118.6105,33.0329],[-118.5739,33.0305],[-118.4995,32.9337],[-118.3542,32.8209],[-118.3918,32.8263],[-118.4318,32.8015],[-118.5062,32.853],[-118.6105,33.0329]]],[[[-124.4086,40.4432],[-124.3294,40.6164],[-124.1583,40.8761],[-124.1118,41.0269],[-124.1291,41.0511],[-124.1536,41.0536],[-124.1654,41.1298],[-124.1438,41.1447],[-124.107,41.2297],[-124.0661,41.4703],[-124.1474,41.718],[-124.1701,41.7433],[-124.195,41.7368],[-124.255,41.7782],[-124.2084,41.8882],[-124.2116,41.9985],[-122.3785,42.0095],[-119.9992,41.9949],[-120.001,38.9996],[-118.7143,38.1022],[-117.5001,37.2204],[-115.8529,35.9697],[-114.6335,35.0019],[-114.6344,34.8729],[-114.5868,34.8357],[-114.5527,34.7669],[-114.4705,34.7114],[-114.4582,34.6579],[-114.4242,34.6105],[-114.4365,34.5954],[-114.3808,34.5297],[-114.3867,34.4579],[-114.3354,34.45],[-114.2261,34.3659],[-114.1769,34.3493],[-114.1383,34.3032],[-114.1312,34.2627],[-114.1646,34.259],[-114.2297,34.1869],[-114.4117,34.11],[-114.4342,34.0874],[-114.4383,34.0226],[-114.5355,33.9347],[-114.5079,33.9038],[-114.5259,33.901],[-114.503,33.868],[-114.5306,33.8554],[-114.528,33.815],[-114.4942,33.7079],[-114.5315,33.6751],[-114.5141,33.6602],[-114.5332,33.6517],[-114.5221,33.6113],[-114.5406,33.5914],[-114.5246,33.5522],[-114.5916,33.4994],[-114.6433,33.4167],[-114.7253,33.405],[-114.698,33.3524],[-114.7312,33.3024],[-114.6721,33.2585],[-114.6895,33.2464],[-114.6736,33.2231],[-114.6754,33.1855],[-114.7065,33.0882],[-114.689,33.084],[-114.6651,33.0339],[-114.646,33.0489],[-114.6188,33.0272],[-114.5201,33.03],[-114.4929,32.9718],[-114.469,32.9723],[-114.4809,32.9353],[-114.4629,32.9079],[-114.469,32.8452],[-114.5308,32.7935],[-114.5269,32.7571],[-114.6184,32.7282],[-114.7019,32.7455],[-114.7196,32.7188],[-117.1237,32.5344],[-117.1377,32.6246],[-117.1607,32.6657],[-117.2127,32.6879],[-117.2431,32.6645],[-117.2561,32.7937],[-117.2819,32.8328],[-117.2562,32.8594],[-117.2537,32.9038],[-117.3125,33.087],[-117.3419,33.1433],[-117.4698,33.2964],[-117.6527,33.4462],[-117.7146,33.4599],[-117.7843,33.5418],[-117.928,33.6072],[-118.1327,33.7532],[-118.1808,33.7651],[-118.1857,33.733],[-118.2428,33.7434],[-118.2471,33.7152],[-118.2678,33.7221],[-118.2941,33.7051],[-118.3643,33.7382],[-118.4105,33.741],[-118.4282,33.7743],[-118.394,33.8042],[-118.3905,33.8388],[-118.4514,33.9591],[-118.5244,34.0307],[-118.5715,34.0417],[-118.7424,34.0329],[-118.8066,34.0004],[-118.8549,34.0349],[-118.9363,34.0436],[-119.086,34.0993],[-119.1293,34.1008],[-119.2164,34.1461],[-119.2786,34.2669],[-119.3904,34.3182],[-119.461,34.3741],[-119.564,34.4153],[-119.6719,34.4161],[-119.7091,34.3954],[-119.7936,34.4183],[-119.8783,34.4073],[-120.0081,34.4604],[-120.1412,34.4734],[-120.2951,34.4706],[-120.4528,34.4424],[-120.4714,34.4478],[-120.5114,34.523],[-120.5813,34.557],[-120.6367,34.561],[-120.6491,34.5786],[-120.6004,34.7046],[-120.6374,34.7559],[-120.6103,34.8582],[-120.6473,34.9011],[-120.6723,34.9025],[-120.6299,35.0615],[-120.6461,35.1439],[-120.7142,35.176],[-120.7489,35.1778],[-120.7605,35.1597],[-120.856,35.2065],[-120.8996,35.2553],[-120.8621,35.347],[-120.8848,35.4302],[-120.9079,35.4491],[-121.0034,35.4607],[-121.1008,35.5489],[-121.1658,35.6353],[-121.2865,35.6655],[-121.3324,35.7831],[-121.4621,35.8861],[-121.5008,35.9981],[-121.5746,36.0252],[-121.6327,36.1205],[-121.7172,36.1951],[-121.8263,36.2421],[-121.852,36.2778],[-121.9027,36.3064],[-121.9016,36.387],[-121.9542,36.5222],[-121.9247,36.5256],[-121.9325,36.5599],[-121.9768,36.5794],[-121.9364,36.6367],[-121.8897,36.6013],[-121.8662,36.6066],[-121.8137,36.6824],[-121.7883,36.804],[-121.8623,36.9316],[-121.9301,36.9781],[-121.9728,36.9542],[-122.0127,36.9632],[-122.0656,36.9485],[-122.1352,36.9678],[-122.2238,37.0257],[-122.2849,37.1017],[-122.3371,37.1174],[-122.3671,37.1728],[-122.4051,37.1958],[-122.4191,37.2415],[-122.4009,37.3592],[-122.4596,37.4927],[-122.4993,37.4953],[-122.5195,37.5373],[-122.5209,37.5942],[-122.5014,37.5996],[-122.4941,37.644],[-122.5145,37.7808],[-122.4768,37.8094],[-122.4095,37.8089],[-122.3877,37.7888],[-122.3746,37.7329],[-122.3593,37.7286],[-122.3942,37.7076],[-122.3743,37.6622],[-122.3893,37.6402],[-122.3556,37.6153],[-122.3785,37.6056],[-122.2629,37.5739],[-122.1621,37.5002],[-122.131,37.5037],[-122.1231,37.474],[-122.0887,37.4523],[-122.0386,37.4546],[-122.0555,37.4952],[-122.1094,37.5003],[-122.1676,37.6772],[-122.2042,37.7116],[-122.2147,37.6992],[-122.2522,37.725],[-122.2617,37.7434],[-122.2439,37.7518],[-122.332,37.782],[-122.3423,37.8056],[-122.2966,37.8285],[-122.3159,37.8368],[-122.2992,37.8405],[-122.3014,37.8555],[-122.3252,37.8743],[-122.3085,37.8709],[-122.3269,37.8887],[-122.3114,37.8958],[-122.3648,37.9179],[-122.3635,37.9056],[-122.3905,37.9091],[-122.4301,37.9631],[-122.4029,37.9549],[-122.401,37.9685],[-122.3676,37.9782],[-122.3679,38.0125],[-122.3326,38.0015],[-122.2835,38.0227],[-122.2629,38.0446],[-122.2828,38.0829],[-122.3936,38.1434],[-122.4435,38.117],[-122.4448,38.1383],[-122.4975,38.1151],[-122.4838,38.0718],[-122.4978,38.0194],[-122.4473,37.9844],[-122.4956,37.9705],[-122.4795,37.9425],[-122.5051,37.9364],[-122.4383,37.8824],[-122.4596,37.8627],[-122.4729,37.8848],[-122.5043,37.8941],[-122.4721,37.8351],[-122.5,37.8209],[-122.5307,37.818],[-122.5615,37.8518],[-122.6588,37.9047],[-122.7252,37.9027],[-122.8214,37.9967],[-122.8821,38.0253],[-122.9568,38.0287],[-122.9831,38.0058],[-122.9635,37.9899],[-123.0241,37.9949],[-122.9491,38.1541],[-122.9956,38.2386],[-122.9728,38.2296],[-122.9771,38.2679],[-123.0243,38.3106],[-123.0637,38.3022],[-123.0798,38.3241],[-123.0683,38.3599],[-123.1288,38.4504],[-123.3319,38.5655],[-123.4461,38.7037],[-123.5148,38.742],[-123.572,38.7982],[-123.5933,38.799],[-123.6598,38.8725],[-123.728,38.9194],[-123.7419,38.9562],[-123.7111,38.9773],[-123.6912,39.0508],[-123.7194,39.1345],[-123.7714,39.1942],[-123.789,39.2697],[-123.8038,39.2788],[-123.7966,39.3013],[-123.8137,39.3083],[-123.8009,39.3183],[-123.8277,39.3484],[-123.8087,39.4274],[-123.8199,39.4395],[-123.7665,39.5528],[-123.7886,39.6],[-123.7942,39.69],[-123.8295,39.7231],[-123.8517,39.832],[-123.9077,39.863],[-123.93,39.9097],[-124.0359,40.0133],[-124.08,40.0298],[-124.0807,40.0661],[-124.1105,40.1038],[-124.1879,40.1305],[-124.3606,40.2572],[-124.3479,40.3146],[-124.3736,40.3929],[-124.4086,40.4432]]]]}},{"type":"Feature","properties":{"id":"state-CO","kind":"state","name":"Colorado","usps":"CO","source":"Census cartographic boundary file cb_2023_us_state_500k (simplified to 0.01 deg)","division":"Upper Division","claim":"C14"},"geometry":{"type":"Polygon","coordinates":[[[-109.0603,38.5993],[-109.0501,41.0007],[-102.0516,41.0024],[-102.0421,36.993],[-109.0452,36.9991],[-109.0418,38.1647],[-109.0601,38.2755],[-109.0603,38.5993]]]}},{"type":"Feature","properties":{"id":"state-UT","kind":"state","name":"Utah","usps":"UT","source":"Census cartographic boundary file cb_2023_us_state_500k (simplified to 0.01 deg)","division":"Upper Division","claim":"C14"},"geometry":{"type":"Polygon","coordinates":[[[-114.053,37.5928],[-114.0415,41.9939],[-111.0467,42.0017],[-111.0467,40.998],[-109.0501,41.0007],[-109.0601,38.2755],[-109.0418,38.1647],[-109.0452,36.9991],[-114.0506,37.0004],[-114.053,37.5928]]]}},{"type":"Feature","properties":{"id":"state-WY","kind":"state","name":"Wyoming","usps":"WY","source":"Census cartographic boundary file cb_2023_us_state_500k (simplified to 0.01 deg)","division":"Upper Division","claim":"C14"},"geometry":{"type":"Polygon","coordinates":[[[-111.0546,45.001],[-104.0579,44.9976],[-104.0532,41.0014],[-111.0467,40.998],[-111.0546,45.001]]]}},{"type":"Feature","properties":{"id":"state-NV","kind":"state","name":"Nevada","usps":"NV","source":"Census cartographic boundary file cb_2023_us_state_500k (simplified to 0.01 deg)","division":"Lower Division","claim":"C10","cut_af":50000,"new_af":250000},"geometry":{"type":"Polygon","coordinates":[[[-120.0065,39.2729],[-119.9992,41.9949],[-114.0415,41.9939],[-114.0439,36.1934],[-114.0682,36.1777],[-114.097,36.1208],[-114.1213,36.1095],[-114.1119,36.0958],[-114.1514,36.0231],[-114.2334,36.0128],[-114.2614,36.0255],[-114.2709,36.0455],[-114.3136,36.059],[-114.3069,36.0825],[-114.3745,36.1437],[-114.4988,36.1266],[-114.5081,36.1497],[-114.5711,36.1511],[-114.6155,36.1297],[-114.6305,36.1422],[-114.6643,36.1163],[-114.7532,36.0895],[-114.7421,36.0398],[-114.7221,36.029],[-114.7428,36.01],[-114.7406,35.9757],[-114.7085,35.9123],[-114.6616,35.8711],[-114.7065,35.849],[-114.6952,35.8323],[-114.7121,35.8062],[-114.6957,35.756],[-114.7054,35.7083],[-114.6806,35.684],[-114.689,35.6503],[-114.6534,35.6108],[-114.6758,35.5795],[-114.6572,35.5323],[-114.6787,35.4988],[-114.6635,35.4478],[-114.6268,35.4096],[-114.6057,35.3585],[-114.5692,35.1835],[-114.5783,35.1288],[-114.6468,35.1019],[-114.6029,35.0686],[-114.6369,35.0284],[-114.6335,35.0019],[-115.8529,35.9697],[-117.5001,37.2204],[-118.7143,38.1022],[-120.001,38.9996],[-120.0065,39.2729]]]}},{"type":"Feature","properties":{"id":"state-AZ","kind":"state","name":"Arizona","usps":"AZ","source":"Census cartographic boundary file cb_2023_us_state_500k (simplified to 0.01 deg)","division":"Lower Division","claim":"C10","cut_af":760000,"new_af":2040000},"geometry":{"type":"Polygon","coordinates":[[[-114.8163,32.508],[-114.8028,32.5117],[-114.8133,32.5245],[-114.7916,32.557],[-114.7928,32.5693],[-114.8136,32.5613],[-114.7997,32.5922],[-114.8074,32.6213],[-114.7644,32.6427],[-114.7019,32.7455],[-114.6184,32.7282],[-114.5392,32.7498],[-114.5269,32.7571],[-114.5288,32.7963],[-114.469,32.8452],[-114.4629,32.9079],[-114.4809,32.9353],[-114.4677,32.9669],[-114.4929,32.9718],[-114.5113,33.0235],[-114.5717,33.0366],[-114.6188,33.0272],[-114.646,33.0489],[-114.6623,33.0327],[-114.689,33.084],[-114.7065,33.0882],[-114.6754,33.1855],[-114.6736,33.2231],[-114.6895,33.2464],[-114.6721,33.2585],[-114.7312,33.3024],[-114.698,33.3524],[-114.7253,33.405],[-114.6433,33.4167],[-114.5916,33.4994],[-114.5246,33.5522],[-114.5406,33.5914],[-114.5221,33.6113],[-114.5332,33.6517],[-114.5141,33.6602],[-114.5315,33.6751],[-114.4942,33.7079],[-114.528,33.815],[-114.5306,33.8554],[-114.503,33.868],[-114.5259,33.901],[-114.5079,33.9038],[-114.5355,33.9347],[-114.4383,34.0226],[-114.4342,34.0874],[-114.4159,34.1076],[-114.2297,34.1869],[-114.1646,34.259],[-114.1312,34.2627],[-114.1383,34.3032],[-114.1769,34.3493],[-114.2261,34.3659],[-114.3354,34.45],[-114.3867,34.4579],[-114.3808,34.5297],[-114.4365,34.5954],[-114.4242,34.6105],[-114.4582,34.6579],[-114.4705,34.7114],[-114.5527,34.7669],[-114.5868,34.8357],[-114.6352,34.875],[-114.6369,35.0284],[-114.6029,35.0686],[-114.6468,35.1019],[-114.5783,35.1288],[-114.5692,35.1835],[-114.6057,35.3585],[-114.6268,35.4096],[-114.6635,35.4478],[-114.6787,35.4988],[-114.6572,35.5323],[-114.6758,35.5795],[-114.6534,35.6108],[-114.689,35.6503],[-114.6806,35.684],[-114.7054,35.7083],[-114.6957,35.756],[-114.7121,35.8062],[-114.6952,35.8323],[-114.7065,35.849],[-114.6616,35.8711],[-114.7085,35.9123],[-114.7406,35.9757],[-114.7428,36.01],[-114.7221,36.029],[-114.7421,36.0398],[-114.7363,36.0585],[-114.7548,36.0847],[-114.7362,36.1044],[-114.6798,36.1099],[-114.6305,36.1422],[-114.6155,36.1297],[-114.5711,36.1511],[-114.5143,36.1508],[-114.5002,36.1432],[-114.5047,36.1272],[-114.4636,36.1397],[-114.4437,36.1256],[-114.4091,36.147],[-114.3702,36.1426],[-114.3069,36.0825],[-114.3136,36.059],[-114.2709,36.0455],[-114.2421,36.0152],[-114.1459,36.0272],[-114.1119,36.0958],[-114.1213,36.1095],[-114.097,36.1208],[-114.0682,36.1777],[-114.0439,36.1934],[-114.0506,37.0004],[-109.0452,36.9991],[-109.05,31.3325],[-111.0748,31.3322],[-114.8136,32.4943],[-114.8163,32.508]]]}},{"type":"Feature","properties":{"id":"reservoir-mead","kind":"reservoir","name":"Lake Mead","claim":"C16","source":"Natural Earth 10m lakes (public domain), unmodified polygon; NOT a Reclamation or Census file"},"geometry":{"type":"Polygon","coordinates":[[[-113.651,35.871],[-113.6375,35.8587],[-113.6316,35.8428],[-113.6356,35.8307],[-113.6469,35.8354],[-113.6624,35.8454],[-113.6787,35.8495],[-113.6787,35.8557],[-113.6736,35.8587],[-113.6709,35.8619],[-113.669,35.866],[-113.6656,35.8701],[-113.6842,35.8772],[-113.6993,35.8805],[-113.7098,35.8881],[-113.7154,35.9243],[-113.7205,35.9411],[-113.7282,35.954],[-113.7377,35.9596],[-113.7555,35.9638],[-113.7626,35.9746],[-113.7681,36.0067],[-113.7775,36.0259],[-113.7887,36.0365],[-113.8035,36.0429],[-113.8558,36.0568],[-113.8714,36.0633],[-113.878,36.0718],[-113.8834,36.0824],[-113.9086,36.1109],[-113.9158,36.1165],[-113.9208,36.1227],[-113.9261,36.1277],[-113.9326,36.131],[-113.9428,36.1292],[-113.9513,36.1233],[-113.9609,36.1189],[-113.9743,36.1233],[-113.9806,36.1357],[-113.9806,36.1524],[-113.9825,36.168],[-113.9947,36.1781],[-113.9952,36.1966],[-114.0175,36.1981],[-114.044,36.1904],[-114.0568,36.1816],[-114.0576,36.1754],[-114.0632,36.1545],[-114.0835,36.1133],[-114.0863,36.0953],[-114.1023,36.0556],[-114.116,36.0303],[-114.1161,36.0265],[-114.1189,36.025],[-114.1319,36.0209],[-114.1431,36.0194],[-114.1796,36.0209],[-114.2071,36.0144],[-114.2175,36.0135],[-114.2274,36.0147],[-114.2674,36.0247],[-114.3194,36.0441],[-114.3304,36.0518],[-114.3278,36.0836],[-114.3294,36.0992],[-114.3374,36.1165],[-114.3558,36.1333],[-114.3578,36.1371],[-114.3659,36.1327],[-114.3721,36.1245],[-114.3764,36.1142],[-114.3789,36.1036],[-114.3831,36.1095],[-114.389,36.1136],[-114.3967,36.1162],[-114.4062,36.1165],[-114.3964,36.1006],[-114.3937,36.0877],[-114.3999,36.0789],[-114.4161,36.0756],[-114.429,36.0703],[-114.4374,36.0606],[-114.4463,36.055],[-114.4608,36.0621],[-114.4514,36.0777],[-114.4601,36.0865],[-114.4882,36.0962],[-114.4966,36.1068],[-114.5075,36.1324],[-114.516,36.1445],[-114.5306,36.1536],[-114.5436,36.1536],[-114.5706,36.1445],[-114.6291,36.1371],[-114.6447,36.1283],[-114.6835,36.0903],[-114.7041,36.0818],[-114.7071,36.0485],[-114.7172,36.0253],[-114.7414,36.0135],[-114.7324,36.0344],[-114.7271,36.0409],[-114.7399,36.0397],[-114.7498,36.0379],[-114.7589,36.0338],[-114.7693,36.027],[-114.7977,36.0459],[-114.8069,36.0482],[-114.8163,36.0521],[-114.8135,36.0615],[-114.8064,36.0727],[-114.8035,36.0818],[-114.8127,36.098],[-114.8445,36.1207],[-114.8587,36.1371],[-114.7439,36.1301],[-114.714,36.1371],[-114.7212,36.1539],[-114.7147,36.1548],[-114.7019,36.1486],[-114.6901,36.1445],[-114.6751,36.1477],[-114.6451,36.1651],[-114.5871,36.1651],[-114.5446,36.1716],[-114.457,36.1719],[-114.4335,36.2263],[-114.4201,36.2487],[-114.4146,36.2622],[-114.4124,36.2778],[-114.4167,36.2931],[-114.4251,36.3026],[-114.4305,36.3105],[-114.4261,36.3226],[-114.4314,36.3514],[-114.3959,36.3932],[-114.3705,36.4377],[-114.4062,36.4736],[-114.4058,36.4821],[-114.4109,36.4942],[-114.4121,36.506],[-114.3993,36.5145],[-114.3911,36.5095],[-114.3615,36.4798],[-114.3527,36.4812],[-114.3512,36.4857],[-114.3524,36.4924],[-114.3509,36.5007],[-114.346,36.5204],[-114.3441,36.5245],[-114.3424,36.5578],[-114.3374,36.5896],[-114.3322,36.5799],[-114.3243,36.569],[-114.3303,36.5283],[-114.331,36.5083],[-114.3243,36.4933],[-114.3363,36.478],[-114.3322,36.4636],[-114.3223,36.4495],[-114.3167,36.4356],[-114.3185,36.4168],[-114.3241,36.4053],[-114.3509,36.3773],[-114.364,36.3526],[-114.3727,36.3199],[-114.3812,36.2399],[-114.3858,36.2281],[-114.3884,36.2163],[-114.3852,36.1992],[-114.3761,36.1857],[-114.3497,36.1619],[-114.3368,36.1433],[-114.2895,36.1036],[-114.2886,36.1],[-114.2895,36.0856],[-114.2878,36.0797],[-114.2838,36.078],[-114.2789,36.0774],[-114.2752,36.0756],[-114.268,36.0703],[-114.2604,36.0674],[-114.2533,36.0635],[-114.2554,36.0621],[-114.2616,36.055],[-114.2414,36.0409],[-114.2321,36.0371],[-114.2206,36.0347],[-114.2044,36.0338],[-114.1791,36.0391],[-114.1626,36.0409],[-114.1513,36.045],[-114.1476,36.0553],[-114.1462,36.0818],[-114.1413,36.0933],[-114.1278,36.1168],[-114.1179,36.1469],[-114.1011,36.1666],[-114.0636,36.1992],[-114.0227,36.2231],[-114.0218,36.2378],[-114.0189,36.2499],[-114.0125,36.2596],[-114.0015,36.2675],[-113.9847,36.2363],[-113.981,36.2263],[-113.9803,36.2207],[-113.981,36.2025],[-113.9788,36.1942],[-113.9743,36.1892],[-113.9694,36.1854],[-113.9673,36.1816],[-113.9651,36.1725],[-113.9588,36.1601],[-113.9489,36.1492],[-113.936,36.1445],[-113.9188,36.1424],[-113.9108,36.1368],[-113.9061,36.128],[-113.8985,36.1165],[-113.8826,36.0992],[-113.8649,36.0836],[-113.8428,36.0724],[-113.8135,36.068],[-113.7904,36.0618],[-113.7678,36.0453],[-113.755,36.0232],[-113.7619,36.0],[-113.7161,35.9638],[-113.7067,35.9526],[-113.69,35.9061],[-113.6787,35.8902],[-113.651,35.871]]]}},{"type":"Feature","properties":{"id":"reservoir-powell","kind":"reservoir","name":"Lake Powell","claim":"C16","source":"Natural Earth 10m lakes (public domain), unmodified polygon; NOT a Reclamation or Census file"},"geometry":{"type":"Polygon","coordinates":[[[-110.4102,37.9107],[-110.3808,37.9133],[-110.363,37.9051],[-110.3767,37.8842],[-110.392,37.8656],[-110.3927,37.8468],[-110.3836,37.8127],[-110.3824,37.8009],[-110.4002,37.8024],[-110.4266,37.8088],[-110.4382,37.8091],[-110.4292,37.7979],[-110.4202,37.7915],[-110.4136,37.7826],[-110.4108,37.7647],[-110.4154,37.7211],[-110.4176,37.7135],[-110.4301,37.7093],[-110.4476,37.7064],[-110.4597,37.7008],[-110.4556,37.6893],[-110.4473,37.6775],[-110.4454,37.6652],[-110.452,37.6555],[-110.494,37.6455],[-110.5205,37.6302],[-110.5452,37.611],[-110.6219,37.5377],[-110.6443,37.5218],[-110.6304,37.5018],[-110.6384,37.4889],[-110.6585,37.4821],[-110.6815,37.4803],[-110.7002,37.4744],[-110.6878,37.4618],[-110.6504,37.4391],[-110.6961,37.4079],[-110.705,37.3982],[-110.7108,37.3794],[-110.7127,37.3638],[-110.7159,37.3496],[-110.7261,37.3361],[-110.7432,37.3243],[-110.7586,37.3193],[-110.7753,37.3161],[-110.795,37.3096],[-110.8091,37.3002],[-110.82,37.2866],[-110.836,37.2542],[-110.8285,37.2475],[-110.8485,37.2283],[-110.8569,37.218],[-110.8627,37.2066],[-110.8463,37.2045],[-110.8213,37.1901],[-110.8081,37.1854],[-110.7956,37.1857],[-110.7616,37.1913],[-110.69,37.1954],[-110.6696,37.2054],[-110.6578,37.2278],[-110.6418,37.2133],[-110.6434,37.1948],[-110.6582,37.1792],[-110.6815,37.1724],[-110.8733,37.1786],[-110.8964,37.1718],[-110.9167,37.1559],[-110.9349,37.1377],[-110.952,37.1238],[-110.971,37.1159],[-111.0168,37.105],[-111.0377,37.1035],[-111.063,37.105],[-111.0765,37.1041],[-111.0858,37.0997],[-111.0879,37.095],[-111.0898,37.085],[-111.0926,37.0829],[-111.0986,37.085],[-111.1055,37.0891],[-111.1104,37.0935],[-111.1098,37.0959],[-111.1668,37.0876],[-111.1701,37.082],[-111.1712,37.0659],[-111.1619,37.0476],[-111.1329,37.0202],[-111.1438,37.014],[-111.157,37.0182],[-111.186,37.0391],[-111.1991,37.042],[-111.2116,37.0344],[-111.2169,37.0223],[-111.2165,37.0076],[-111.2121,36.9934],[-111.2233,36.997],[-111.237,37.004],[-111.2487,37.0135],[-111.2537,37.0246],[-111.2567,37.0411],[-111.2636,37.0385],[-111.2776,37.0179],[-111.2929,37.0108],[-111.3635,37.0079],[-111.3855,37.0002],[-111.3931,36.9955],[-111.3747,36.9881],[-111.3712,36.9764],[-111.3756,36.9649],[-111.3872,36.9593],[-111.4077,36.9569],[-111.4589,36.9413],[-111.4735,36.9322],[-111.4897,36.9708],[-111.5076,36.9979],[-111.5555,37.0488],[-111.5328,37.0514],[-111.4418,37.0352],[-111.4267,37.0453],[-111.434,37.0682],[-111.4592,37.1103],[-111.4373,37.0991],[-111.3635,37.0302],[-111.3509,37.0229],[-111.3394,37.0246],[-111.3145,37.0329],[-111.3057,37.04],[-111.3266,37.0765],[-111.3273,37.1021],[-111.3142,37.1183],[-111.2766,37.1121],[-111.2686,37.1185],[-111.2651,37.1303],[-111.2667,37.1445],[-111.273,37.1533],[-111.3083,37.1724],[-111.2845,37.1718],[-111.2665,37.1689],[-111.2515,37.1615],[-111.2367,37.1483],[-111.2299,37.1344],[-111.2187,37.0982],[-111.2121,37.0897],[-111.1981,37.0929],[-111.1868,37.1053],[-111.1678,37.1339],[-111.166,37.1442],[-111.1821,37.1701],[-111.1849,37.1854],[-111.116,37.1553],[-111.1189,37.1265],[-111.1127,37.1238],[-110.9944,37.1288],[-110.9657,37.1377],[-110.9491,37.1509],[-110.9008,37.2027],[-110.8862,37.2328],[-110.8672,37.2554],[-110.8627,37.2678],[-110.8665,37.286],[-110.8762,37.3005],[-110.888,37.314],[-110.8974,37.3293],[-110.8487,37.3072],[-110.8391,37.3061],[-110.8307,37.322],[-110.84,37.3281],[-110.855,37.3334],[-110.8627,37.3467],[-110.8487,37.3537],[-110.7801,37.3429],[-110.7541,37.3437],[-110.7417,37.3526],[-110.738,37.3626],[-110.7398,37.3876],[-110.7343,37.4032],[-110.7224,37.4123],[-110.7105,37.4194],[-110.705,37.4285],[-110.7106,37.4403],[-110.7466,37.4727],[-110.7807,37.5218],[-110.7739,37.528],[-110.7577,37.5153],[-110.7508,37.5112],[-110.7398,37.508],[-110.7563,37.5386],[-110.7602,37.5492],[-110.7613,37.5648],[-110.7563,37.5716],[-110.7498,37.5713],[-110.7393,37.5542],[-110.6989,37.508],[-110.6718,37.503],[-110.6607,37.5156],[-110.6557,37.533],[-110.6397,37.5504],[-110.6032,37.6042],[-110.571,37.6322],[-110.5498,37.6458],[-110.5065,37.6575],[-110.4974,37.6725],[-110.4937,37.6926],[-110.4866,37.7135],[-110.4744,37.7273],[-110.4609,37.7379],[-110.4495,37.7511],[-110.445,37.7712],[-110.4504,37.7726],[-110.4622,37.7815],[-110.4729,37.7915],[-110.4757,37.7962],[-110.4809,37.8015],[-110.479,37.813],[-110.4724,37.8297],[-110.4641,37.8356],[-110.4404,37.8456],[-110.4313,37.8506],[-110.4201,37.8633],[-110.4138,37.8774],[-110.4163,37.8901],[-110.4313,37.8986],[-110.4102,37.9107]]]}},{"type":"Feature","properties":{"id":"dam-glen-canyon","kind":"dam","name":"Glen Canyon Dam","claim":"C16","source":"OpenStreetMap way 108060498 (Nominatim lookup 2026-10-02), (c) OpenStreetMap contributors, ODbL"},"geometry":{"type":"Point","coordinates":[-111.4842,36.9371]}},{"type":"Feature","properties":{"id":"dam-hoover","kind":"dam","name":"Hoover Dam","claim":"C16","source":"OpenStreetMap way 49938932 (Nominatim lookup 2026-10-02), (c) OpenStreetMap contributors, ODbL"},"geometry":{"type":"Point","coordinates":[-114.7375,36.0157]}},{"type":"Feature","properties":{"id":"label-AZ","kind":"label_anchor","name":"AZ label position","source":"chosen by hand to sit inside the state; display only"},"geometry":{"type":"Point","coordinates":[-111.9,34.3]}},{"type":"Feature","properties":{"id":"label-CA","kind":"label_anchor","name":"CA label position","source":"chosen by hand to sit inside the state; display only"},"geometry":{"type":"Point","coordinates":[-120.3,37.6]}},{"type":"Feature","properties":{"id":"label-NV","kind":"label_anchor","name":"NV label position","source":"chosen by hand to sit inside the state; display only"},"geometry":{"type":"Point","coordinates":[-116.6,39.4]}},{"type":"Feature","properties":{"id":"label-UB","kind":"label_anchor","name":"Upper Division label position","source":"chosen by hand to sit inside the state; display only"},"geometry":{"type":"Point","coordinates":[-105.55,39.0]}}]}